hospital_id,hospital_name,status,fac_level,address,city,zip_code,county,category,lng,lat,facility_num
106010735,ALAMEDA HOSPITAL,Open,Parent Facility,2070 CLINTON AVE,ALAMEDA,94501,ALAMEDA,General Acute Care Hospital,-122.253991,37.76266,10735
106010739,ALTA BATES SUMMIT MEDICAL CENTER-ALTA BATES CAMPUS,Open,Parent Facility,2450 ASHBY AVE,BERKELEY,94705,ALAMEDA,General Acute Care Hospital,-122.25743,37.85645,10739
106010776,UCSF BENIOFF CHILDREN'S HOSPITAL OAKLAND,Open,Parent Facility,747 52ND ST,OAKLAND,94609,ALAMEDA,General Acute Care Hospital,-122.26747,37.83722,10776
106010811,FAIRMONT HOSPITAL,Open,Consolidated Facility,15400 FOOTHILL BLVD,SAN LEANDRO,94578,ALAMEDA,General Acute Care Hospital,-122.11819,37.70648,10811
106010844,ALTA BATES SUMMIT MEDICAL CENTER-HERRICK CAMPUS,Open,Consolidated Facility,2001 DWIGHT WAY,BERKELEY,94704,ALAMEDA,General Acute Care Hospital,-122.26984,37.86373,10844
106010846,HIGHLAND HOSPITAL,Open,Parent Facility,1411 E 31ST ST,OAKLAND,94602,ALAMEDA,General Acute Care Hospital,-122.23138,37.79925,10846
106010887,KINDRED HOSPITAL - SAN FRANCISCO BAY AREA,Open,Parent Facility,2800 BENEDICT DR,SAN LEANDRO,94577,ALAMEDA,General Acute Care Hospital,-122.13119,37.71621,10887
106010937,ALTA BATES SUMMIT MEDICAL CENTER,Open,Parent Facility,350 HAWTHORNE AVE,OAKLAND,94609,ALAMEDA,General Acute Care Hospital,-122.26257,37.82106,10937
106010967,ST. ROSE HOSPITAL,Open,Parent Facility,27200 CALAROGA AVE,HAYWARD,94545,ALAMEDA,General Acute Care Hospital,-122.08962,37.63291,10967
106010983,VALLEY MEMORIAL HOSPITAL,Open,Consolidated Facility,1111 E STANLEY BLVD,LIVERMORE,94550,ALAMEDA,General Acute Care Hospital,-121.78252,37.6787,10983
106010987,WASHINGTON HOSPITAL - FREMONT,Open,Parent Facility,2000 MOWRY AVE,FREMONT,94538,ALAMEDA,General Acute Care Hospital,-121.98006,37.55847,10987
106013619,SAN LEANDRO HOSPITAL,Open,Consolidated Facility,13855 E 14TH ST,SAN LEANDRO,94578,ALAMEDA,General Acute Care Hospital,-122.14067,37.71364,13619
106013626,ALTA BATES SUMMIT MEDICAL CENTER - SUMMIT CAMPUS,Open,Consolidated Facility,3100 SUMMIT ST,OAKLAND,94609,ALAMEDA,General Acute Care Hospital,-122.2643,37.81994,13626
106013687,MPI CHEMICAL DEPENDENCY RECOVERY HOSPITAL,Open,Parent Facility,3012 SUMMIT ST,OAKLAND,94609,ALAMEDA,Chemical Dep. Recovery Hospital,-122.26451,37.81944,13687
106014034,FREMONT HOSPITAL,Open,Parent Facility,39001 SUNDALE DR,FREMONT,94538,ALAMEDA,Acute Psychiatric Hospital,-121.97885,37.54652,14034
106014050,STANFORD HEALTH CARE - VALLEYCARE,Open,Parent Facility,5555 W LAS POSITAS BLVD,PLEASANTON,94588,ALAMEDA,General Acute Care Hospital,-121.88095,37.69206,14050
106014132,KAISER FOUNDATION HOSPITAL - FREMONT,Open,Parent Facility,39400 PASEO PADRE PKWY,FREMONT,94538,ALAMEDA,General Acute Care Hospital,-121.97483,37.55055,14132
106014207,TELECARE HERITAGE PSYCHIATRIC HEALTH FACILITY,Open,Parent Facility,2633 E 27TH ST,OAKLAND,94601,ALAMEDA,Psychiatric Health Facility,-122.22257,37.79127,14207
106014226,TELECARE WILLOW ROCK CENTER,Open,Parent Facility,2050 FAIRMONT DR,SAN LEANDRO,94578,ALAMEDA,Psychiatric Health Facility,-122.12149,37.71008,14226
106014233,EDEN MEDICAL CENTER,Open,Parent Facility,20103 LAKE CHABOT RD,CASTRO VALLEY,94546,ALAMEDA,General Acute Care Hospital,-122.0874055,37.6983769,14233
106014326,KAISER FOUNDATION HOSPITAL - OAKLAND/RICHMOND,Open,Parent Facility,275 W MACARTHUR BLVD,OAKLAND,94611,ALAMEDA,General Acute Care Hospital,-122.25791,37.82402,14326
106014337,KAISER FOUNDATION HOSPITAL - SAN LEANDRO,Open,Parent Facility,2500 MERCED ST,SAN LEANDRO,94577,ALAMEDA,General Acute Care Hospital,-122.16917,37.70611,14337
106034002,SUTTER AMADOR HOSPITAL,Open,Parent Facility,200 MISSION BLVD,JACKSON,95642,AMADOR,General Acute Care Hospital,-120.77272,38.34743,34002
106040802,ORCHARD HOSPITAL,Open,Parent Facility,240 SPRUCE ST,GRIDLEY,95948,BUTTE,General Acute Care Hospital,-121.68955,39.36701,40802
106040828,ENLOE MEDICAL CENTER - COHASSET,Open,Consolidated Facility,560 COHASSET RD,CHICO,95926,BUTTE,General Acute Care Hospital,-121.84793,39.75187,40828
106040937,OROVILLE HOSPITAL,Open,Parent Facility,2767 OLIVE HWY,OROVILLE,95966,BUTTE,General Acute Care Hospital,-121.5428,39.50485,40937
106040962,ENLOE MEDICAL CENTER- ESPLANADE,Open,Parent Facility,1531 ESPLANADE,CHICO,95926,BUTTE,General Acute Care Hospital,-121.84918,39.74226,40962
106044006,BUTTE COUNTY MENTAL HEALTH SERVICES,Open,Parent Facility,592 RIO LINDO AVE,CHICO,95926,BUTTE,Psychiatric Health Facility,-121.8482488,39.754281,44006
106044011,ENLOE REHABILITATION CENTER,Open,Consolidated Facility,340 W EAST AVE,CHICO,95926,BUTTE,General Acute Care Hospital,-121.86694,39.75346,44011
106050932,MARK TWAIN MEDICAL CENTER,Open,Parent Facility,768 MOUNTAIN RANCH RD,SAN ANDREAS,95249,CALAVERAS,General Acute Care Hospital,-120.67095,38.19057,50932
106060870,COLUSA MEDICAL CENTER,Open,Parent Facility,199 E WEBSTER ST,COLUSA,95932,COLUSA,General Acute Care Hospital,-122.00034,39.20731,60870
106070924,CONTRA COSTA REGIONAL MEDICAL CENTER,Open,Parent Facility,2500 ALHAMBRA AVE,MARTINEZ,94553,CONTRA COSTA,General Acute Care Hospital,-122.13101,38.00646,70924
106070934,SUTTER DELTA MEDICAL CENTER,Open,Parent Facility,3901 LONE TREE WAY,ANTIOCH,94509,CONTRA COSTA,General Acute Care Hospital,-121.8054,37.98222,70934
106070988,JOHN MUIR MEDICAL CENTER-WALNUT CREEK CAMPUS,Open,Parent Facility,1601 YGNACIO VALLEY RD,WALNUT CREEK,94598,CONTRA COSTA,General Acute Care Hospital,-122.040781,37.91304,70988
106070990,KAISER FOUNDATION HOSPITAL - WALNUT CREEK,Open,Parent Facility,1425 S MAIN ST,WALNUT CREEK,94596,CONTRA COSTA,General Acute Care Hospital,-122.05828,37.8923,70990
106071018,JOHN MUIR MEDICAL CENTER-CONCORD CAMPUS,Open,Parent Facility,2540 EAST ST,CONCORD,94520,CONTRA COSTA,General Acute Care Hospital,-122.03874,37.98615,71018
106074011,SAN RAMON REGIONAL MEDICAL CENTER SOUTH BUILDING,Open,Consolidated Facility,7777 NORRIS CANYON RD,SAN RAMON,94583,CONTRA COSTA,General Acute Care Hospital,-121.95748,37.77405,74011
106074017,SAN RAMON REGIONAL MEDICAL CENTER,Open,Parent Facility,6001 NORRIS CANYON RD,SAN RAMON,94583,CONTRA COSTA,General Acute Care Hospital,-121.95884,37.77549,74017
106074039,JOHN MUIR BEHAVIORAL HEALTH CENTER,Open,Parent Facility,2740 GRANT ST,CONCORD,94520,CONTRA COSTA,Acute Psychiatric Hospital,-122.04081,37.98921,74039
106074093,KAISER FOUNDATION HOSPITAL - RICHMOND CAMPUS,Open,Consolidated Facility,901 NEVIN AVE,RICHMOND,94801,CONTRA COSTA,General Acute Care Hospital,-122.36093,37.93685,74093
106074097,KAISER FOUNDATION HOSPITAL - ANTIOCH,Open,Parent Facility,4501 SAND CREEK ROAD,ANTIOCH,94531,CONTRA COSTA,General Acute Care Hospital,-121.776854,37.951975,74097
106084001,SUTTER COAST HOSPITAL,Open,Parent Facility,800 E WASHINGTON BLVD,CRESCENT CITY,95531,DEL NORTE,General Acute Care Hospital,-124.19514,41.77278,84001
106090793,BARTON MEMORIAL HOSPITAL,Open,Parent Facility,2170 SOUTH AVE,SOUTH LAKE TAHOE,96150,EL DORADO,General Acute Care Hospital,-119.99758,38.91228,90793
106090933,MARSHALL MEDICAL CENTER,Open,Parent Facility,1100 MARSHALL WAY,PLACERVILLE,95667,EL DORADO,General Acute Care Hospital,-120.79092,38.72556,90933
106094002,TELECARE EL DORADO COUNTY P.H.F.,Open,Parent Facility,935B SPRING ST,PLACERVILLE,95667,EL DORADO,Psychiatric Health Facility,-120.80275,38.7322,94002
106100005,CLOVIS COMMUNITY MEDICAL CENTER,Open,Parent Facility,2755 HERNDON AVE,CLOVIS,93611,FRESNO,General Acute Care Hospital,-119.66072,36.83745,100005
106100697,COALINGA REGIONAL MEDICAL CENTER,Suspense,Parent Facility,1191 PHELPS AVE,COALINGA,93210,FRESNO,General Acute Care Hospital,-120.34035,36.15152,100697
106100717,COMMUNITY REGIONAL MEDICAL CENTER-FRESNO,Open,Parent Facility,2823 FRESNO ST,FRESNO,93721,FRESNO,General Acute Care Hospital,-119.784071,36.74252,100717
106100793,ADVENTIST HEALTH SELMA,Open,Consolidated Facility,1141 ROSE AVE,SELMA,93662,FRESNO,General Acute Care Hospital,-119.5983879,36.5688374,100793
106100797,ADVENTIST HEALTH REEDLEY,Open,Parent Facility,372 W CYPRESS AVE,REEDLEY,93654,FRESNO,General Acute Care Hospital,-119.45145,36.60789,100797
106100899,ST. AGNES MEDICAL CENTER,Open,Parent Facility,1303 E HERNDON AVE,FRESNO,93720,FRESNO,General Acute Care Hospital,-119.7649963,36.8370782,100899
106104008,COMMUNITY BEHAVIORAL HEALTH CENTER,Open,Consolidated Facility,7171 N CEDAR AVE,FRESNO,93720,FRESNO,General Acute Care Hospital,-119.756841,36.84079,104008
106104023,SAN JOAQUIN VALLEY REHABILITATION HOSPITAL,Open,Parent Facility,7173 N SHARON AVE,FRESNO,93720,FRESNO,General Acute Care Hospital,-119.760671,36.84034,104023
106104047,FRESNO SURGICAL HOSPITAL,Open,Parent Facility,6125 N FRESNO ST,FRESNO,93710,FRESNO,General Acute Care Hospital,-119.78155,36.82531,104047
106104062,KAISER FOUNDATION HOSPITAL - FRESNO,Open,Parent Facility,7300 N FRESNO ST,FRESNO,93720,FRESNO,General Acute Care Hospital,-119.7832,36.84246,104062
106104089,EXODUS PSYCHIATRIC HEALTH FACILITY FRESNO,Open,Parent Facility,4411 E KINGS CANYON RD,FRESNO,93702,FRESNO,Psychiatric Health Facility,-119.75162,36.73596,104089
106105029,FRESNO HEART AND SURGICAL HOSPITAL,Open,Consolidated Facility,15 E AUDUBON DR,FRESNO,93720,FRESNO,General Acute Care Hospital,-119.788856,36.860919,105029
106105051,DEPARTMENT OF STATE HOSPITAL - COALINGA,Open,Parent Facility,24511 WEST JAYNE AVENUE,COALINGA,93210,FRESNO,Acute Psychiatric Hospital,-120.23723802,36.13724021,105051
106105125,CENTRAL STAR PSYCHIATRIC HEALTH FACILITY,Open,Parent Facility,4411 E KINGS CANYON RD,FRESNO,93702,FRESNO,Psychiatric Health Facility,-119.75162,36.73596,105125
106110889,GLENN MEDICAL CENTER,Open,Parent Facility,1133 W SYCAMORE ST,WILLOWS,95988,GLENN,General Acute Care Hospital,-122.20791,39.52055,110889
106120981,"GENERAL HOSPITAL, THE",Open,Consolidated Facility,2200 HARRISON AVE,EUREKA,95501,HUMBOLDT,General Acute Care Hospital,-124.13979,40.78743,120981
106121002,MAD RIVER COMMUNITY HOSPITAL,Open,Parent Facility,3800 JANES RD,ARCATA,95521,HUMBOLDT,General Acute Care Hospital,-124.09038,40.90351,121002
106121031,JEROLD PHELPS COMMUNITY HOSPITAL,Open,Parent Facility,733 CEDAR ST,GARBERVILLE,95542,HUMBOLDT,General Acute Care Hospital,-123.79286,40.10195,121031
106121051,REDWOOD MEMORIAL HOSPITAL,Open,Parent Facility,3300 RENNER DR,FORTUNA,95540,HUMBOLDT,General Acute Care Hospital,-124.13549,40.58267,121051
106121080,ST. JOSEPH HOSPITAL - EUREKA,Open,Parent Facility,2700 DOLBEER ST,EUREKA,95501,HUMBOLDT,General Acute Care Hospital,-124.14216,40.7832,121080
106124004,SEMPERVIRENS P.H.F.,Open,Parent Facility,720 WOOD ST,EUREKA,95501,HUMBOLDT,Psychiatric Health Facility,-124.16126,40.78109,124004
106130699,EL CENTRO REGIONAL MEDICAL CENTER,Open,Parent Facility,1415 ROSS AVE,EL CENTRO,92243,IMPERIAL,General Acute Care Hospital,-115.49824,32.78138,130699
106130760,PIONEERS MEMORIAL HEALTHCARE DISTRICT,Open,Parent Facility,207 W LEGION RD,BRAWLEY,92227,IMPERIAL,General Acute Care Hospital,-115.55183,32.96003,130760
106141273,NORTHERN INYO HOSPITAL,Open,Parent Facility,150 PIONEER LN,BISHOP,93514,INYO,General Acute Care Hospital,-118.40756,37.36207,141273
106141338,SOUTHERN INYO HOSPITAL,Open,Parent Facility,501 E LOCUST ST,LONE PINE,93545,INYO,General Acute Care Hospital,-118.05816,36.6084,141338
106150706,ADVENTIST HEALTH DELANO,Open,Parent Facility,1401 GARCES HWY,DELANO,93215,KERN,General Acute Care Hospital,-119.23706,35.76143,150706
106150722,BAKERSFIELD MEMORIAL HOSPITAL,Open,Parent Facility,420 34TH ST,BAKERSFIELD,93301,KERN,General Acute Care Hospital,-119.00658,35.39051,150722
106150736,KERN MEDICAL CENTER,Open,Parent Facility,1700 MOUNT VERNON AVENUE,BAKERSFIELD,93306,KERN,General Acute Care Hospital,-118.967222,35.380833,150736
106150737,KERN VALLEY HEALTHCARE DISTRICT,Open,Parent Facility,6412 LAUREL AVE,LAKE ISABELLA,93240,KERN,General Acute Care Hospital,-118.40509,35.63486,150737
106150761,MERCY HOSPITAL - BAKERSFIELD,Open,Parent Facility,2215 TRUXTUN AVE,BAKERSFIELD,93301,KERN,General Acute Care Hospital,-119.02715,35.37323,150761
106150775,GOOD SAMARITAN HOSPITAL-BAKERSFIELD,Open,Parent Facility,901 OLIVE DR,BAKERSFIELD,93308,KERN,General Acute Care Hospital,-119.03913,35.41216,150775
106150782,RIDGECREST REGIONAL HOSPITAL,Open,Parent Facility,1081 N CHINA LAKE BLVD,RIDGECREST,93555,KERN,General Acute Care Hospital,-117.66996,35.6404,150782
106150788,ADVENTIST HEALTH BAKERSFIELD,Open,Parent Facility,2615 CHESTER AVE,BAKERSFIELD,93301,KERN,General Acute Care Hospital,-119.018775,35.383064,150788
106154022,ENCOMPASS HEALTH REHABILITATION HOSPITAL OF BAKERSFIELD,Open,Parent Facility,5001 COMMERCE DR,BAKERSFIELD,93309,KERN,General Acute Care Hospital,-119.05725,35.36819,154022
106154044,"BAKERSFIELD BEHAVORIAL HEALTHCARE HOSPITAL, LLC",Open,Parent Facility,5201 WHITE LN,BAKERSFIELD,93309,KERN,Acute Psychiatric Hospital,-119.0581,35.318,154044
106154101,BAKERSFIELD HEART HOSPITAL,Open,Parent Facility,3001 SILLECT AVE,BAKERSFIELD,93308,KERN,General Acute Care Hospital,-119.04314,35.38619,154101
106154108,MERCY SOUTHWEST HOSPITAL,Open,Consolidated Facility,400 OLD RIVER RD,BAKERSFIELD,93311,KERN,General Acute Care Hospital,-119.11528,35.35496,154108
106154160,CRESTWOOD PSYCHIATRIC HEALTH FACILITY BAKERSFIELD,Open,Parent Facility,6700 EUCALYPTUS DR,BAKERSFIELD,93306,KERN,Psychiatric Health Facility,-118.929706,35.3657603,154160
106154168,ADVENTIST HEALTH TEHACHAPI VALLEY,Open,Parent Facility,MAGELLAN DR,TEHACHAPI,93561,KERN,General Acute Care Hospital,-118.44924,35.14302,154168
106164029,ADVENTIST HEALTH HANFORD,Open,Parent Facility,115 MALL DR,HANFORD,93230,KINGS,General Acute Care Hospital,-119.6683912,36.3256247,164029
106171049,ADVENTIST HEALTH CLEARLAKE,Open,Parent Facility,15630 18TH AVE,CLEARLAKE,95422,LAKE,General Acute Care Hospital,-122.6202,38.93619,171049
106171395,SUTTER LAKESIDE HOSPITAL,Open,Parent Facility,5176 HILL RD E,LAKEPORT,95453,LAKE,General Acute Care Hospital,-122.91003,39.10232,171395
106184008,BANNER LASSEN MEDICAL CENTER,Open,Parent Facility,1800 SPRING RIDGE DR,SUSANVILLE,96130,LASSEN,General Acute Care Hospital,-120.64609,40.42306,184008
106190017,ALHAMBRA HOSPITAL MEDICAL CENTER,Open,Parent Facility,100 S RAYMOND AVE,ALHAMBRA,91801,LOS ANGELES,General Acute Care Hospital,-118.1449,34.08988,190017
106190020,BHC ALHAMBRA HOSPITAL,Open,Parent Facility,4619 ROSEMEAD BLVD,ROSEMEAD,91770,LOS ANGELES,Acute Psychiatric Hospital,-118.07352,34.08926,190020
106190034,ANTELOPE VALLEY HOSPITAL,Open,Parent Facility,1600 W AVE J,LANCASTER,93534,LOS ANGELES,General Acute Care Hospital,-118.157981,34.6878,190034
106190045,CATALINA ISLAND MEDICAL CENTER,Open,Parent Facility,100 FALLS CANYON RD,AVALON,90704,LOS ANGELES,General Acute Care Hospital,-118.33369,33.33887,190045
106190049,KINDRED HOSPITAL - BALDWIN PARK,Open,Parent Facility,14148 FRANCISQUITO AVE,BALDWIN PARK,91706,LOS ANGELES,General Acute Care Hospital,-117.967611,34.06288,190049
106190052,BARLOW RESPIRATORY HOSPITAL,Open,Parent Facility,2000 STADIUM WAY,LOS ANGELES,90026,LOS ANGELES,General Acute Care Hospital,-118.24744,34.08058,190052
106190053,ST. MARY MEDICAL CENTER - LONG BEACH,Open,Parent Facility,1050 LINDEN AVE,LONG BEACH,90813,LOS ANGELES,General Acute Care Hospital,-118.1866412,33.7802376,190053
106190066,LOS ANGELES COMMUNITY HOSPITAL AT BELLFLOWER,Open,Consolidated Facility,9542 ARTESIA BLVD,BELLFLOWER,90706,LOS ANGELES,General Acute Care Hospital,-118.12945,33.87472,190066
106190081,BEVERLY HOSPITAL,Open,Parent Facility,309 W BEVERLY BLVD,MONTEBELLO,90640,LOS ANGELES,General Acute Care Hospital,-118.10132,34.01614,190081
106190110,SOUTHERN CALIFORNIA HOSPITAL AT CULVER CITY,Open,Consolidated Facility,3828 DELMAS TER,CULVER CITY,90232,LOS ANGELES,General Acute Care Hospital,-118.3969429,34.0231953,190110
106190125,CALIFORNIA HOSPITAL MEDICAL CENTER - LOS ANGELES,Open,Parent Facility,1401 S GRAND AVE,LOS ANGELES,90015,LOS ANGELES,General Acute Care Hospital,-118.26551,34.03721,190125
106190137,CASA COLINA HOSPITAL,Open,Parent Facility,255 E BONITA AVE,POMONA,91767,LOS ANGELES,General Acute Care Hospital,-117.745655,34.096265,190137
106190148,CENTINELA HOSPITAL MEDICAL CENTER,Open,Parent Facility,555 E HARDY ST,INGLEWOOD,90301,LOS ANGELES,General Acute Care Hospital,-118.34788,33.94917,190148
106190150,KEDREN COMMUNITY MENTAL HEALTH CENTER,Open,Parent Facility,4211 AVALON BLVD,LOS ANGELES,90011,LOS ANGELES,Acute Psychiatric Hospital,-118.2661803,34.0073123,190150
106190155,"CALIFORNIA REHABILITATION INSTITUTE, LLC",Open,Parent Facility,2070 CENTURY PARK E,LOS ANGELES,90067,LOS ANGELES,General Acute Care Hospital,-118.4124,34.05899,190155
106190159,GARDENS REGIONAL HOSPITAL AND MEDICAL CENTER,Suspense,Parent Facility,21530 PIONEER BLVD,HAWAIIAN GARDENS,90716,LOS ANGELES,General Acute Care Hospital,-118.08176,33.83377,190159
106190163,AURORA CHARTER OAK,Open,Parent Facility,1161 E COVINA BLVD,COVINA,91724,LOS ANGELES,Acute Psychiatric Hospital,-117.866811,34.10038,190163
106190170,CHILDREN'S HOSPITAL OF LOS ANGELES,Open,Parent Facility,4650 W SUNSET BLVD,LOS ANGELES,90027,LOS ANGELES,General Acute Care Hospital,-118.2909547,34.0978692,190170
106190176,CITY OF HOPE HELFORD CLINICAL RESEARCH HOSPITAL,Open,Parent Facility,1500 DUARTE RD,DUARTE,91010,LOS ANGELES,General Acute Care Hospital,-117.97356,34.13219,190176
106190184,COLLEGE HOSPITAL,Open,Parent Facility,10802 COLLEGE PL,CERRITOS,90703,LOS ANGELES,Acute Psychiatric Hospital,-118.10264,33.8852,190184
106190196,KINDRED HOSPITAL - SOUTH BAY,Open,Parent Facility,1246 W 155TH ST,GARDENA,90247,LOS ANGELES,General Acute Care Hospital,-118.29701,33.89042,190196
106190197,COMMUNITY HOSPITAL OF HUNTINGTON PARK,Open,Parent Facility,2623 E SLAUSON AVE,HUNTINGTON PARK,90255,LOS ANGELES,General Acute Care Hospital,-118.22466,33.98929,190197
106190198,LOS ANGELES COMMUNITY HOSPITAL,Open,Parent Facility,4081 E OLYMPIC BLVD,LOS ANGELES,90023,LOS ANGELES,General Acute Care Hospital,-118.1875,34.01897,190198
106190200,SAN GABRIEL VALLEY MEDICAL CENTER,Open,Parent Facility,438 W LAS TUNAS DR,SAN GABRIEL,91776,LOS ANGELES,General Acute Care Hospital,-118.10503,34.1024,190200
106190232,DEL AMO HOSPITAL,Open,Parent Facility,23700 CAMINO DEL SOL,TORRANCE,90505,LOS ANGELES,Acute Psychiatric Hospital,-118.34418,33.80883,190232
106190240,LAKEWOOD REGIONAL MEDICAL CENTER,Open,Parent Facility,3700 SOUTH ST,LAKEWOOD,90712,LOS ANGELES,General Acute Care Hospital,-118.1492012,33.859731,190240
106190243,PIH HEALTH HOSPITAL - DOWNEY,Open,Parent Facility,11500 BROOKSHIRE AVE,DOWNEY,90241,LOS ANGELES,General Acute Care Hospital,-118.13196,33.93515,190243
106190256,EAST LOS ANGELES DOCTORS HOSPITAL,Open,Parent Facility,4060 WHITTIER BLVD,LOS ANGELES,90023,LOS ANGELES,General Acute Care Hospital,-118.18377,34.02383,190256
106190280,ENCINO HOSPITAL MEDICAL CENTER,Open,Parent Facility,16237 VENTURA BLVD,ENCINO,91436,LOS ANGELES,General Acute Care Hospital,-118.48662,34.15686,190280
106190298,EMANATE HEALTH FOOTHILL PRESBYTERIAN HOSPITAL,Open,Parent Facility,250 S GRAND AVE,GLENDORA,91741,LOS ANGELES,General Acute Care Hospital,-117.87244,34.13384,190298
106190305,KINDRED HOSPITAL - LOS ANGELES,Open,Parent Facility,5525 W SLAUSON AVE,LOS ANGELES,90056,LOS ANGELES,General Acute Care Hospital,-118.378431,33.99021,190305
106190315,GARFIELD MEDICAL CENTER,Open,Parent Facility,525 N GARFIELD AVE,MONTEREY PARK,91754,LOS ANGELES,General Acute Care Hospital,-118.12302,34.06826,190315
106190317,GATEWAYS HOSPITAL AND MENTAL HEALTH CENTER,Open,Parent Facility,1891 EFFIE ST,LOS ANGELES,90026,LOS ANGELES,Acute Psychiatric Hospital,-118.256571,34.08515,190317
106190323,ADVENTIST HEALTH GLENDALE,Open,Parent Facility,1509 WILSON TER,GLENDALE,91206,LOS ANGELES,General Acute Care Hospital,-118.23109,34.14951,190323
106190328,GLENDORA OAKS BEHAVIORAL HEALTH HOSPITAL,Open,Parent Facility,150 W ROUTE 66,GLENDORA,91740,LOS ANGELES,Acute Psychiatric Hospital,-117.86609,34.12867,190328
106190352,GREATER EL MONTE COMMUNITY HOSPITAL,Open,Parent Facility,1701 SANTA ANITA AVE,SOUTH EL MONTE,91733,LOS ANGELES,General Acute Care Hospital,-118.04257,34.04827,190352
106190380,SOUTHERN CALIFORNIA HOSPITAL AT HOLLYWOOD,Open,Parent Facility,6245 DE LONGPRE AVE,HOLLYWOOD,90028,LOS ANGELES,General Acute Care Hospital,-118.32501,34.09628,190380
106190382,HOLLYWOOD PRESBYTERIAN MEDICAL CENTER,Open,Parent Facility,1300 N VERMONT AVE,LOS ANGELES,90027,LOS ANGELES,General Acute Care Hospital,-118.29163,34.09557,190382
106190385,PROVIDENCE HOLY CROSS MEDICAL CENTER,Open,Parent Facility,15031 RINALDI ST,MISSION HILLS,91345,LOS ANGELES,General Acute Care Hospital,-118.45951,34.2791,190385
106190392,GOOD SAMARITAN HOSPITAL-LOS ANGELES,Open,Parent Facility,1225 WILSHIRE BLVD,LOS ANGELES,90017,LOS ANGELES,General Acute Care Hospital,-118.26522,34.05324,190392
106190400,HUNTINGTON MEMORIAL HOSPITAL,Open,Parent Facility,100 W CALIFORNIA BLVD,PASADENA,91105,LOS ANGELES,General Acute Care Hospital,-118.1518,34.13565,190400
106190410,L.A. DOWNTOWN MEDICAL CENTER - INGLESIDE CAMPUS D/P APH,Open,Distinct Part Facility,7500 HELLMAN AVE,ROSEMEAD,91770,LOS ANGELES,General Acute Care Hospital,-118.1057269,34.0692926,190410
106190413,EMANATE HEALTH INTER-COMMUNITY HOSPITAL,Open,Consolidated Facility,210 W SAN BERNARDINO RD,COVINA,91723,LOS ANGELES,General Acute Care Hospital,-117.89264,34.08993,190413
106190422,TORRANCE MEMORIAL MEDICAL CENTER,Open,Parent Facility,3330 LOMITA BLVD,TORRANCE,90505,LOS ANGELES,General Acute Care Hospital,-118.3434945,33.8119157,190422
106190429,KAISER FOUNDATION HOSPITAL - LOS ANGELES,Open,Parent Facility,4867 W SUNSET BLVD,LOS ANGELES,90027,LOS ANGELES,General Acute Care Hospital,-118.295371,34.09875,190429
106190431,KAISER FOUNDATION HOSPITAL - SOUTH BAY,Open,Parent Facility,25825 VERMONT AVE,HARBOR CITY,90710,LOS ANGELES,General Acute Care Hospital,-118.29373,33.78926,190431
106190432,KAISER FOUNDATION HOSPITAL - PANORAMA CITY,Open,Parent Facility,13652 CANTARA ST,PANORAMA CITY,91402,LOS ANGELES,General Acute Care Hospital,-118.43103,34.2198,190432
106190434,KAISER FOUNDATION HOSPITAL - WEST LA,Open,Parent Facility,6041 CADILLAC AVE,LOS ANGELES,90034,LOS ANGELES,General Acute Care Hospital,-118.37568,34.03793,190434
106190449,KINDRED HOSPITAL - LA MIRADA,Open,Parent Facility,14900 IMPERIAL HWY,LA MIRADA,90638,LOS ANGELES,General Acute Care Hospital,-118.01321,33.91709,190449
106190458,KINDRED HOSPITAL - SAN GABRIEL VALLEY,Open,Consolidated Facility,845 N LARK ELLEN AVE,WEST COVINA,91791,LOS ANGELES,General Acute Care Hospital,-117.91669,34.0857,190458
106190462,AURORA LAS ENCINAS HOSPITAL,Open,Parent Facility,2900 E DEL MAR BLVD,PASADENA,91107,LOS ANGELES,Acute Psychiatric Hospital,-118.09041,34.14213,190462
106190470,PROVIDENCE LITTLE COMPANY OF MARY MEDICAL CENTER TORRANCE,Open,Parent Facility,4101 TORRANCE BLVD,TORRANCE,90503,LOS ANGELES,General Acute Care Hospital,-118.356771,33.83891,190470
106190475,COMMUNITY HOSPITAL LONG BEACH,Suspense,Parent Facility,1720 TERMINO AVE,LONG BEACH,90804,LOS ANGELES,General Acute Care Hospital,-118.14578,33.78871,190475
106190477,COLLEGE MEDICAL CENTER SOUTH CAMPUS D/P APH,Open,Distinct Part Facility,1725 PACIFIC AVE,LONG BEACH,90813,LOS ANGELES,General Acute Care Hospital,-118.19382,33.78868,190477
106190500,CEDARS-SINAI MARINA DEL REY HOSPITAL,Open,Parent Facility,4650 LINCOLN BLVD,MARINA DEL REY,90292,LOS ANGELES,General Acute Care Hospital,-118.43971,33.98125,190500
106190517,PROVIDENCE CEDARS-SINAI TARZANA MEDICAL CENTER,Open,Parent Facility,18321 CLARK ST,TARZANA,91356,LOS ANGELES,General Acute Care Hospital,-118.532001,34.17067,190517
106190521,MEMORIAL HOSPITAL OF GARDENA,Open,Parent Facility,1145 W REDONDO BEACH BLVD,GARDENA,90247,LOS ANGELES,General Acute Care Hospital,-118.29493,33.89246,190521
106190522,GLENDALE MEMORIAL HOSPITAL AND HEALTH CENTER,Open,Parent Facility,1420 S CENTRAL AVE,GLENDALE,91204,LOS ANGELES,General Acute Care Hospital,-118.25769,34.1284,190522
106190523,COLLEGE MEDICAL CENTER HAWTHORNE CAMPUS,Open,Distinct Part Facility,13300 HAWTHORNE BLVD,HAWTHORNE,90250,LOS ANGELES,General Acute Care Hospital,-118.35238,33.91145,190523
106190524,MISSION COMMUNITY HOSPITAL - PANORAMA CAMPUS,Open,Parent Facility,14850 ROSCOE BLVD,PANORAMA CITY,91402,LOS ANGELES,General Acute Care Hospital,-118.45639,34.22138,190524
106190525,MEMORIALCARE LONG BEACH MEDICAL CENTER,Open,Parent Facility,2801 ATLANTIC AVE,LONG BEACH,90806,LOS ANGELES,General Acute Care Hospital,-118.1852,33.80801,190525
106190529,METHODIST HOSPITAL OF SOUTHERN CALIFORNIA,Open,Parent Facility,300 W HUNTINGTON DR,ARCADIA,91007,LOS ANGELES,General Acute Care Hospital,-118.03879,34.13603,190529
106190534,OLYMPIA MEDICAL CENTER,Open,Parent Facility,5900 W OLYMPIC BLVD,LOS ANGELES,90036,LOS ANGELES,General Acute Care Hospital,-118.36008,34.05754,190534
106190541,MONROVIA MEMORIAL HOSPITAL,Open,Parent Facility,323 S HELIOTROPE AVE,MONROVIA,91016,LOS ANGELES,General Acute Care Hospital,-117.992205,34.149086,190541
106190547,MONTEREY PARK HOSPITAL,Open,Parent Facility,900 S ATLANTIC BLVD,MONTEREY PARK,91754,LOS ANGELES,General Acute Care Hospital,-118.13665,34.05308,190547
106190552,MOTION PICTURE AND TELEVISION HOSPITAL,Open,Parent Facility,23388 MULHOLLAND DR,WOODLAND HILLS,91364,LOS ANGELES,Acute Psychiatric Hospital,-118.63605,34.1584,190552
106190555,CEDARS-SINAI MEDICAL CENTER,Open,Parent Facility,8700 BEVERLY BLVD,LOS ANGELES,90048,LOS ANGELES,General Acute Care Hospital,-118.38061,34.07681,190555
106190568,NORTHRIDGE HOSPITAL MEDICAL CENTER,Open,Parent Facility,18300 ROSCOE BLVD,NORTHRIDGE,91325,LOS ANGELES,General Acute Care Hospital,-118.53186,34.22075,190568
106190570,NORWALK COMMUNITY HOSPITAL,Open,Consolidated Facility,13222 BLOOMFIELD AVE,NORWALK,90650,LOS ANGELES,General Acute Care Hospital,-118.0644,33.91108,190570
106190587,COLLEGE MEDICAL CENTER,Open,Parent Facility,2776 PACIFIC AVE,LONG BEACH,90806,LOS ANGELES,General Acute Care Hospital,-118.19355,33.80759,190587
106190599,KINDRED HOSPITAL PARAMOUNT,Open,Parent Facility,16453 COLORADO AVE,PARAMOUNT,90723,LOS ANGELES,General Acute Care Hospital,-118.16144,33.8849,190599
106190630,POMONA VALLEY HOSPITAL MEDICAL CENTER,Open,Parent Facility,1798 N GAREY AVE,POMONA,91767,LOS ANGELES,General Acute Care Hospital,-117.750621,34.07709,190630
106190631,PIH HEALTH HOSPITAL - WHITTIER,Open,Parent Facility,12401 WASHINGTON BLVD,WHITTIER,90602,LOS ANGELES,General Acute Care Hospital,-118.049255,33.9697943,190631
106190636,EMANATE HEALTH QUEEN OF THE VALLEY HOSPITAL,Open,Parent Facility,1115 S SUNSET AVE,WEST COVINA,91790,LOS ANGELES,General Acute Care Hospital,-117.94528,34.06242,190636
106190646,KAISER FOUNDATION HOSPITAL - MENTAL HEALTH CENTER,Open,Consolidated Facility,765 W COLLEGE ST,LOS ANGELES,90012,LOS ANGELES,General Acute Care Hospital,-118.243391,34.06657,190646
106190661,L.A. DOWNTOWN MEDICAL CENTER,Open,Parent Facility,1711 W TEMPLE ST,LOS ANGELES,90026,LOS ANGELES,General Acute Care Hospital,-118.26324,34.06879,190661
106190673,SAN DIMAS COMMUNITY HOSPITAL,Open,Parent Facility,1350 W COVINA BLVD,SAN DIMAS,91773,LOS ANGELES,General Acute Care Hospital,-117.834328,34.099076,190673
106190680,PROVIDENCE LITTLE COMPANY OF MARY MC - SAN PEDRO,Open,Parent Facility,1300 W 7TH ST,SAN PEDRO,90732,LOS ANGELES,General Acute Care Hospital,-118.303893,33.737939,190680
106190681,DOCS SURGICAL HOSPITAL,Open,Parent Facility,6000 SAN VICENTE BLVD,LOS ANGELES,90036,LOS ANGELES,General Acute Care Hospital,-118.36195,34.0572,190681
106190687,SANTA MONICA - UCLA MEDICAL CENTER AND ORTHOPAEDIC HOSPITAL,Open,Parent Facility,1250 16TH ST,SANTA MONICA,90404,LOS ANGELES,General Acute Care Hospital,-118.486123,34.027539,190687
106190696,PACIFICA HOSPITAL OF THE VALLEY,Open,Parent Facility,9449 SAN FERNANDO RD,SUN VALLEY,91352,LOS ANGELES,General Acute Care Hospital,-118.39555,34.24088,190696
106190708,SHERMAN OAKS HOSPITAL,Open,Parent Facility,4929 VAN NUYS BLVD,SHERMAN OAKS,91403,LOS ANGELES,General Acute Care Hospital,-118.4488,34.15995,190708
106190754,ST. FRANCIS MEDICAL CENTER,Open,Parent Facility,3630 E IMPERIAL HWY,LYNWOOD,90262,LOS ANGELES,General Acute Care Hospital,-118.20415,33.93085,190754
106190756,PROVIDENCE SAINT JOHN'S HEALTH CENTER,Open,Parent Facility,2121 SANTA MONICA BLVD,SANTA MONICA,90404,LOS ANGELES,General Acute Care Hospital,-118.478668,34.029804,190756
106190758,PROVIDENCE SAINT JOSEPH MEDICAL CENTER,Open,Parent Facility,501 S BUENA VISTA ST,BURBANK,91505,LOS ANGELES,General Acute Care Hospital,-118.32655,34.15486,190758
106190766,COAST PLAZA HOSPITAL,Open,Parent Facility,13100 STUDEBAKER RD,NORWALK,90650,LOS ANGELES,General Acute Care Hospital,-118.09915,33.91255,190766
106190782,TARZANA TREATMENT CENTER,Open,Parent Facility,18646 OXNARD ST,TARZANA,91356,LOS ANGELES,Acute Psychiatric Hospital,-118.539761,34.17923,190782
106190796,RONALD REAGAN UCLA MEDICAL CENTER,Open,Parent Facility,757 WESTWOOD PLAZA,LOS ANGELES,90095,LOS ANGELES,General Acute Care Hospital,-118.445,34.068889,190796
106190812,VALLEY PRESBYTERIAN HOSPITAL,Open,Parent Facility,15107 VANOWEN ST,VAN NUYS,91405,LOS ANGELES,General Acute Care Hospital,-118.4632,34.19396,190812
106190814,SOUTHERN CALIFORNIA HOSPITAL AT VAN NUYS D/P APH,Open,Distinct Part Facility,14433 EMELITA ST,VAN NUYS,91401,LOS ANGELES,General Acute Care Hospital,-118.44724,34.17673,190814
106190818,USC VERDUGO HILLS HOSPITAL,Open,Parent Facility,1812 VERDUGO BLVD,GLENDALE,91208,LOS ANGELES,General Acute Care Hospital,-118.2152,34.20557,190818
106190857,WEST COVINA MEDICAL CENTER,Open,Parent Facility,725 S ORANGE AVE,WEST COVINA,91790,LOS ANGELES,General Acute Care Hospital,-117.94505,34.07042,190857
106190859,WEST HILLS HOSPITAL AND MEDICAL CENTER,Open,Parent Facility,7300 MEDICAL CENTER DR,WEST HILLS,91307,LOS ANGELES,General Acute Care Hospital,-118.62939,34.20337,190859
106190878,ADVENTIST HEALTH WHITE MEMORIAL,Open,Parent Facility,1720 E CESAR E CHAVEZ AVE,LOS ANGELES,90033,LOS ANGELES,General Acute Care Hospital,-118.21691,34.05085,190878
106190883,WHITTIER HOSPITAL MEDICAL CENTER,Open,Parent Facility,9080 COLIMA RD,WHITTIER,90605,LOS ANGELES,General Acute Care Hospital,-118.00303,33.95379,190883
106190930,RESNICK NEUROPSYCHIATRIC HOSPITAL AT UCLA,Open,Parent Facility,150 MEDICAL PLAZA,LOS ANGELES,90095,LOS ANGELES,Acute Psychiatric Hospital,-118.4458953,34.0650255,190930
106190949,HENRY MAYO NEWHALL HOSPITAL,Open,Parent Facility,23845 MCBEAN PKWY,VALENCIA,91355,LOS ANGELES,General Acute Care Hospital,-118.55476,34.39545,190949
106190958,DEPARTMENT OF STATE HOSPITAL-METROPOLITAN,Open,Parent Facility,11401 BLOOMFIELD AVE,NORWALK,90650,LOS ANGELES,Acute Psychiatric Hospital,-118.0640187,33.9241831,190958
106191216,"USC KENNETH NORRIS, JR. CANCER HOSPITAL",Open,Parent Facility,1441 EASTLAKE AVE,LOS ANGELES,90033,LOS ANGELES,General Acute Care Hospital,-118.20471,34.062,191216
106191225,TOM REDGATE MEMORIAL RECOVERY CENTER,Open,Parent Facility,1775 CHESTNUT AVE,LONG BEACH,90813,LOS ANGELES,Chemical Dep. Recovery Hospital,-118.19647,33.7894,191225
106191227,LAC/HARBOR-UCLA MEDICAL CENTER,Open,Parent Facility,1000 W CARSON ST,TORRANCE,90502,LOS ANGELES,General Acute Care Hospital,-118.29353,33.83155,191227
106191228,LAC+USC MEDICAL CENTER,Open,Parent Facility,1200 N STATE ST,LOS ANGELES,90033,LOS ANGELES,General Acute Care Hospital,-118.21031,34.05982,191228
106191230,"MARTIN LUTHER KING, JR. COMMUNITY HOSPITAL",Open,Parent Facility,1680 E 120TH ST,LOS ANGELES,90059,LOS ANGELES,General Acute Care Hospital,-118.2435,33.92453,191230
106191231,LOS ANGELES COUNTY OLIVE VIEW-UCLA MEDICAL CENTER,Open,Parent Facility,14445 OLIVE VIEW DR,SYLMAR,91342,LOS ANGELES,General Acute Care Hospital,-118.45255,34.32418,191231
106191306,LAC/RANCHO LOS AMIGOS NATIONAL REHAB CENTER,Open,Parent Facility,7601 IMPERIAL HWY,DOWNEY,90242,LOS ANGELES,General Acute Care Hospital,-118.15795,33.92723,191306
106191450,KAISER FOUNDATION HOSPITAL - WOODLAND HILLS,Open,Parent Facility,5601 DE SOTO AVE,WOODLAND HILLS,91367,LOS ANGELES,General Acute Care Hospital,-118.58829,34.17198,191450
106194010,AMERICAN RECOVERY CENTER,Open,Parent Facility,2180 VALLEY BLVD,POMONA,91768,LOS ANGELES,Chemical Dep. Recovery Hospital,-117.79059,34.06133,194010
106194044,BELLWOOD HEALTH CENTER,Suspense,Parent Facility,17800 WOODRUFF AVE,BELLFLOWER,90706,LOS ANGELES,Psychiatric Health Facility,-118.1171,33.87092,194044
106194219,KECK HOSPITAL OF USC,Open,Parent Facility,1500 SAN PABLO ST,LOS ANGELES,90033,LOS ANGELES,General Acute Care Hospital,-118.20287,34.06284,194219
106194967,STAR VIEW ADOLESCENT - P H F,Open,Parent Facility,4025 W 226TH ST,TORRANCE,90505,LOS ANGELES,Psychiatric Health Facility,-118.35565,33.82363,194967
106194981,LA CASA PSYCHIATRIC HEALTH FACILITY,Open,Parent Facility,6060 N PARAMOUNT BLVD,LONG BEACH,90805,LOS ANGELES,Psychiatric Health Facility,-118.15979,33.86412,194981
106196035,KAISER FOUNDATION HOSPITAL - BALDWIN PARK,Open,Parent Facility,1011 BALDWIN PARK BLVD,BALDWIN PARK,91706,LOS ANGELES,General Acute Care Hospital,-117.986,34.06348,196035
106196168,MEMORIALCARE MILLER CHILDREN'S & WOMEN'S HOSPITAL LONG BEACH,Open,Parent Facility,2801 ATLANTIC AVE,LONG BEACH,90806,LOS ANGELES,General Acute Care Hospital,-118.18506,33.80807,196168
106196403,KAISER FOUNDATION HOSPITAL - DOWNEY,Open,Parent Facility,9333 IMPERIAL HWY,DOWNEY,90242,LOS ANGELES,General Acute Care Hospital,-118.1290216,33.9171234,196403
106196404,JOYCE EISENBERG KEEFER MEDICAL CENTER,Open,Parent Facility,7150 TAMPA AVE,RESEDA,91335,LOS ANGELES,Acute Psychiatric Hospital,-118.55341,34.20014,196404
106196405,PALMDALE REGIONAL MEDICAL CENTER,Open,Parent Facility,38600 MEDICAL CENTER DR,PALMDALE,93551,LOS ANGELES,General Acute Care Hospital,-118.1443461,34.5843754,196405
106197931,EXODUS RECOVERY P.H.F.,Open,Parent Facility,9808 VENICE BLVD,CULVER CITY,90232,LOS ANGELES,Psychiatric Health Facility,-118.39817,34.02359,197931
106198495,OCEAN VIEW PSYCHIATRIC HEALTH FACILITY,Open,Parent Facility,2600 REDONDO AVE,LONG BEACH,90806,LOS ANGELES,Psychiatric Health Facility,-118.1513,33.8043,198495
106201281,MADERA COMMUNITY HOSPITAL,Open,Parent Facility,1250 E ALMOND AVE,MADERA,93637,MADERA,General Acute Care Hospital,-120.0447,36.94538,201281
106204019,VALLEY CHILDREN'S HOSPITAL,Open,Parent Facility,9300 VALLEY CHILDREN'S PL,MADERA,93636,MADERA,General Acute Care Hospital,-119.80042,36.88439,204019
106210992,KAISER FOUNDATION HOSPITAL - SAN RAFAEL,Open,Parent Facility,99 MONTECILLO RD,SAN RAFAEL,94903,MARIN,General Acute Care Hospital,-122.55376,38.0041,210992
106210993,KENTFIELD HOSPITAL,Open,Parent Facility,1125 SIR FRANCIS DRAKE BLVD.,KENTFIELD,94904,MARIN,General Acute Care Hospital,-122.5529638,37.9588587,210993
106211006,MARINHEALTH MEDICAL CENTER,Open,Parent Facility,250 BON AIR RD,GREENBRAE,94904,MARIN,General Acute Care Hospital,-122.53715,37.94651,211006
106214034,NOVATO COMMUNITY HOSPITAL,Open,Parent Facility,180 ROWLAND WAY,NOVATO,94945,MARIN,General Acute Care Hospital,-122.55974,38.09827,214034
106220733,JOHN C FREMONT HEALTHCARE DISTRICT,Open,Parent Facility,5189 HOSPITAL RD,MARIPOSA,95338,MARIPOSA,General Acute Care Hospital,-119.97698,37.50045,220733
106231013,MENDOCINO COAST DISTRICT HOSPITAL,Open,Parent Facility,700 RIVER DR,FORT BRAGG,95437,MENDOCINO,General Acute Care Hospital,-123.80068,39.4326,231013
106231396,ADVENTIST HEALTH UKIAH VALLEY,Open,Parent Facility,275 HOSPITAL DR,UKIAH,95482,MENDOCINO,General Acute Care Hospital,-123.202741,39.15216,231396
106234038,ADVENTIST HEALTH HOWARD MEMORIAL,Open,Parent Facility,95490,WILLITS,95490,MENDOCINO,General Acute Care Hospital,-123.35486,39.39927,234038
106240924,MEMORIAL HOSPITAL LOS BANOS,Open,Parent Facility,520 W I ST,LOS BANOS,93635,MERCED,General Acute Care Hospital,-120.86147,37.06273,240924
106240942,MERCY MEDICAL CENTER - MERCED,Open,Parent Facility,333 MERCY AVE,MERCED,95340,MERCED,General Acute Care Hospital,-120.4651815,37.3402309,240942
106244027,MARIE GREEN PSYCHIATRIC CENTER - P H F,Open,Parent Facility,300 E 15TH ST,MERCED,95340,MERCED,Psychiatric Health Facility,-120.47145,37.29417,244027
106250955,SURPRISE VALLEY COMMUNITY HOSPITAL,Open,Parent Facility,741 MAIN ST,CEDARVILLE,96104,MODOC,General Acute Care Hospital,-120.17187,41.53221,250955
106250956,MODOC MEDICAL CENTER,Open,Parent Facility,228 W MCDOWELL AVE,ALTURAS,96101,MODOC,General Acute Care Hospital,-120.54407,41.48001,250956
106260011,MAMMOTH HOSPITAL,Open,Parent Facility,85 SIERRA PARK ROAD,MAMMOTH LAKES,93546,MONO,General Acute Care Hospital,-118.96408,37.64524,260011
106270744,COMMUNITY HOSPITAL OF THE MONTEREY PENINSULA,Open,Parent Facility,23625 HOLMAN HWY,MONTEREY,93940,MONTEREY,General Acute Care Hospital,-121.92488,36.59827,270744
106270777,GEORGE L. MEE MEMORIAL HOSPITAL,Open,Parent Facility,300 CANAL ST,KING CITY,93930,MONTEREY,General Acute Care Hospital,-121.1325,36.2071,270777
106270875,SALINAS VALLEY MEMORIAL HOSPITAL,Open,Parent Facility,450 E ROMIE LN,SALINAS,93901,MONTEREY,General Acute Care Hospital,-121.646291,36.65909,270875
106274043,NATIVIDAD MEDICAL CENTER,Open,Parent Facility,1441 CONSTITUTION BLVD,SALINAS,93906,MONTEREY,General Acute Care Hospital,-121.6297,36.69686,274043
106281047,QUEEN OF THE VALLEY MEDICAL CENTER,Open,Parent Facility,1000 TRANCAS ST,NAPA,94558,NAPA,General Acute Care Hospital,-122.296,38.32363,281047
106281078,ADVENTIST HEALTH ST. HELENA,Open,Parent Facility,10 WOODLAND RD,ST. HELENA,94574,NAPA,General Acute Care Hospital,-122.47300302,38.53937349,281078
106281266,NAPA STATE HOSPITAL,Open,Parent Facility,2100 NAPA VALLEJO HWY,NAPA,94558,NAPA,Acute Psychiatric Hospital,-122.27387,38.27994,281266
106291023,SIERRA NEVADA MEMORIAL HOSPITAL,Open,Parent Facility,155 GLASSON WAY,GRASS VALLEY,95945,NEVADA,General Acute Care Hospital,-121.047201,39.22808,291023
106291053,TAHOE FOREST HOSPITAL,Open,Parent Facility,10121 PINE AVE,TRUCKEE,96161,NEVADA,General Acute Care Hospital,-120.201516,39.324536,291053
106300032,CHILDREN'S HOSPITAL OF ORANGE COUNTY,Open,Parent Facility,1201 W LA VETA AVE,ORANGE,92868,ORANGE,General Acute Care Hospital,-117.8654488,33.7807511,300032
106300225,MEMORIALCARE ORANGE COAST MEDICAL CENTER,Open,Parent Facility,9920 TALBERT AVE,FOUNTAIN VALLEY,92708,ORANGE,General Acute Care Hospital,-117.95524,33.70162,300225
106301097,"ANAHEIM COMMUNITY HOSPITAL, LLC",Suspense,Parent Facility,3350 W BALL RD,ANAHEIM,92804,ORANGE,General Acute Care Hospital,-118.00706,33.81716,301097
106301098,AHMC ANAHEIM REGIONAL MEDICAL CENTER,Open,Parent Facility,1111 W LA PALMA AVE,ANAHEIM,92801,ORANGE,General Acute Care Hospital,-117.93248,33.84725,301098
106301127,KINDRED HOSPITAL - BREA,Open,Parent Facility,875 N BREA BLVD,BREA,92821,ORANGE,General Acute Care Hospital,-117.89341,33.93393,301127
106301140,CHAPMAN GLOBAL MEDICAL CENTER,Open,Parent Facility,2601 E CHAPMAN AVE,ORANGE,92869,ORANGE,General Acute Care Hospital,-117.82586,33.78785,301140
106301155,COLLEGE HOSPITAL COSTA MESA,Open,Parent Facility,301 VICTORIA ST,COSTA MESA,92627,ORANGE,General Acute Care Hospital,-117.91303,33.65249,301155
106301167,KINDRED HOSPITAL - SANTA ANA,Open,Consolidated Facility,1901 COLLEGE AVE,SANTA ANA,92706,ORANGE,General Acute Care Hospital,-117.89183,33.76158,301167
106301175,FOUNTAIN VALLEY REGIONAL HOSPITAL & MEDICAL CENTER - EUCLID,Open,Parent Facility,17100 EUCLID ST,FOUNTAIN VALLEY,92708,ORANGE,General Acute Care Hospital,-117.93694,33.71546,301175
106301188,ANAHEIM GLOBAL MEDICAL CENTER,Open,Parent Facility,1025 S ANAHEIM BLVD,ANAHEIM,92805,ORANGE,General Acute Care Hospital,-117.90921,33.8209,301188
106301205,HOAG MEMORIAL HOSPITAL PRESBYTERIAN,Open,Parent Facility,1 HOAG DR,NEWPORT BEACH,92663,ORANGE,General Acute Care Hospital,-117.92949,33.62526,301205
106301209,HUNTINGTON BEACH HOSPITAL,Open,Parent Facility,17772 BEACH BLVD,HUNTINGTON BEACH,92647,ORANGE,General Acute Care Hospital,-117.98895,33.70442,301209
106301234,LA PALMA INTERCOMMUNITY HOSPITAL,Open,Parent Facility,7901 WALKER ST,LA PALMA,90623,ORANGE,General Acute Care Hospital,-118.0373,33.84755,301234
106301248,LOS ALAMITOS MEDICAL CENTER,Open,Parent Facility,3751 KATELLA AVE,LOS ALAMITOS,90720,ORANGE,General Acute Care Hospital,-118.0674,33.80327,301248
106301258,SOUTH COAST GLOBAL MEDICAL CENTER,Open,Parent Facility,2701 S BRISTOL ST,SANTA ANA,92704,ORANGE,General Acute Care Hospital,-117.88539,33.71112,301258
106301262,MISSION HOSPITAL REGIONAL MEDICAL CENTER,Open,Parent Facility,27700 MEDICAL CENTER RD,MISSION VIEJO,92691,ORANGE,General Acute Care Hospital,-117.66768,33.56279,301262
106301279,UNIVERSITY OF CALIFORNIA IRVINE MEDICAL CENTER,Open,Parent Facility,101 CITY DRIVE SOUTH,ORANGE,92868,ORANGE,General Acute Care Hospital,-117.8901339,33.7879885,301279
106301283,GARDEN GROVE HOSPITAL AND MEDICAL CENTER,Open,Parent Facility,12601 GARDEN GROVE BLVD,GARDEN GROVE,92843,ORANGE,General Acute Care Hospital,-117.9130315,33.7745089,301283
106301297,PLACENTIA LINDA HOSPITAL,Open,Parent Facility,1301 N ROSE DR,PLACENTIA,92870,ORANGE,General Acute Care Hospital,-117.8434267,33.887072,301297
106301304,NEWPORT BAY HOSPITAL,Open,Parent Facility,1501 E 16TH ST,NEWPORT BEACH,92663,ORANGE,Acute Psychiatric Hospital,-117.90654,33.62218,301304
106301317,MEMORIALCARE SADDLEBACK MEDICAL CENTER,Open,Parent Facility,24451 HEALTH CENTER DR,LAGUNA HILLS,92653,ORANGE,General Acute Care Hospital,-117.70825,33.60802,301317
106301325,SADDLEBACK MEMORIAL MEDICAL CENTER - SAN CLEMENTE,Open,Consolidated Facility,654 CAMINO DE LOS MARES,SAN CLEMENTE,92673,ORANGE,General Acute Care Hospital,-117.64954,33.45745,301325
106301337,MISSION HOSPITAL LAGUNA BEACH,Open,Consolidated Facility,31872 COAST HWY,LAGUNA BEACH,92651,ORANGE,General Acute Care Hospital,-117.7422502,33.4997391,301337
106301340,ST. JOSEPH HOSPITAL - ORANGE,Open,Parent Facility,1100 W STEWART DR,ORANGE,92868,ORANGE,General Acute Care Hospital,-117.86516,33.7823,301340
106301342,ST. JUDE MEDICAL CENTER,Open,Parent Facility,101 E VALENCIA MESA DR,FULLERTON,92835,ORANGE,General Acute Care Hospital,-117.92851,33.89349,301342
106301357,FOOTHILL REGIONAL MEDICAL CENTER,Open,Parent Facility,14662 NEWPORT AVE,TUSTIN,92780,ORANGE,General Acute Care Hospital,-117.82903,33.73119,301357
106301379,WEST ANAHEIM MEDICAL CENTER,Open,Parent Facility,3033 W ORANGE AVE,ANAHEIM,92804,ORANGE,General Acute Care Hospital,-117.99492,33.82482,301379
106301380,KINDRED HOSPITAL WESTMINSTER,Open,Parent Facility,200 HOSPITAL CIR,WESTMINSTER,92683,ORANGE,General Acute Care Hospital,-117.99438,33.76301,301380
106301566,ORANGE COUNTY GLOBAL MEDICAL CENTER,Open,Parent Facility,1001 N TUSTIN AVE,SANTA ANA,92705,ORANGE,General Acute Care Hospital,-117.83398,33.75361,301566
106304039,FOUNTAIN VALLEY REGIONAL HOSPITAL & MEDICAL CENTER - WARNER,Open,Consolidated Facility,11250 WARNER AVE,FOUNTAIN VALLEY,92708,ORANGE,General Acute Care Hospital,-117.93159,33.71625,304039
106304045,HOAG HOSPITAL IRVINE,Open,Consolidated Facility,16200 SAND CANYON AVE,IRVINE,92618,ORANGE,General Acute Care Hospital,-117.77371,33.66168,304045
106304079,ENCOMPASS HEALTH REHABILITATION HOSPITAL OF TUSTIN,Open,Parent Facility,14851 YORBA ST,TUSTIN,92780,ORANGE,General Acute Care Hospital,-117.83028,33.74754,304079
106304113,CHILDREN'S HOSPITAL AT MISSION,Open,Parent Facility,27700 MEDICAL CENTER RD,MISSION VIEJO,92691,ORANGE,General Acute Care Hospital,-117.66768,33.56279,304113
106304159,HEALTHBRIDGE CHILDREN'S HOSPITAL-ORANGE,Open,Parent Facility,393 S TUSTIN ST,ORANGE,92866,ORANGE,General Acute Care Hospital,-117.83572,33.78249,304159
106304306,KAISER FOUNDATION HOSPITAL - ORANGE COUNTY - IRVINE,Open,Consolidated Facility,6640 ALTON PKWY,IRVINE,92618,ORANGE,General Acute Care Hospital,-117.77401,33.65921,304306
106304409,KAISER FOUNDATION HOSPITAL - ORANGE COUNTY - ANAHEIM,Open,Parent Facility,3440 E LA PALMA AVE,ANAHEIM,92806,ORANGE,General Acute Care Hospital,-117.84399,33.85442,304409
106304460,HOAG ORTHOPEDIC INSTITUTE,Open,Parent Facility,16250 SAND CANYON AVE,IRVINE,92618,ORANGE,General Acute Care Hospital,-117.7735916,33.6617789,304460
106304583,"LAGUNA TREATMENT HOSPITAL, LLC",Open,Parent Facility,24552 PACIFIC PARK DR,ALISO VIEJO,92677,ORANGE,Chemical Dep. Recovery Hospital,-117.70173,33.57191,304583
106310791,SUTTER AUBURN FAITH HOSPITAL,Open,Parent Facility,11815 EDUCATION ST,AUBURN,95602,PLACER,General Acute Care Hospital,-121.09943,38.94432,310791
106311000,SUTTER ROSEVILLE MEDICAL CENTER,Open,Parent Facility,1 MEDICAL PLAZA DR,ROSEVILLE,95661,PLACER,General Acute Care Hospital,-121.24922,38.76515,311000
106314024,KAISER FOUNDATION HOSPITAL - ROSEVILLE,Open,Parent Facility,1600 EUREKA RD,ROSEVILLE,95661,PLACER,General Acute Care Hospital,-121.25107,38.74636,314024
106314029,CIRBY HILLS BEHAVIORAL HEALTH,Open,Parent Facility,101 CIRBY HILLS DR,ROSEVILLE,95678,PLACER,Psychiatric Health Facility,-121.2876115,38.7298363,314029
106320859,EASTERN PLUMAS HOSPITAL-PORTOLA CAMPUS,Open,Parent Facility,500 1ST AVE,PORTOLA,96122,PLUMAS,General Acute Care Hospital,-120.462591,39.80517,320859
106320986,PLUMAS DISTRICT HOSPITAL,Open,Parent Facility,1065 BUCKS LAKE RD,QUINCY,95971,PLUMAS,General Acute Care Hospital,-120.96214,39.93921,320986
106321016,SENECA DISTRICT HOSPITAL,Open,Parent Facility,130 BRENTWOOD DR,CHESTER,96020,PLUMAS,General Acute Care Hospital,-121.23396,40.30547,321016
106330120,THE BETTY FORD CENTER,Open,Parent Facility,39000 BOB HOPE DR,RANCHO MIRAGE,92270,RIVERSIDE,Chemical Dep. Recovery Hospital,-116.40808,33.76418,330120
106331145,CORONA REGIONAL MEDICAL CENTER-MAGNOLIA,Open,Consolidated Facility,730 MAGNOLIA AVE,CORONA,92879,RIVERSIDE,General Acute Care Hospital,-117.5546427,33.8586945,331145
106331152,CORONA REGIONAL MEDICAL CENTER-MAIN,Open,Parent Facility,800 S MAIN ST,CORONA,92882,RIVERSIDE,General Acute Care Hospital,-117.5668015,33.8733354,331152
106331164,DESERT REGIONAL MEDICAL CENTER,Open,Parent Facility,1150 N INDIAN CANYON DR,PALM SPRINGS,92262,RIVERSIDE,General Acute Care Hospital,-116.54549,33.83932,331164
106331168,EISENHOWER MEDICAL CENTER,Open,Parent Facility,39000 BOB HOPE DR,RANCHO MIRAGE,92270,RIVERSIDE,General Acute Care Hospital,-116.40808,33.76418,331168
106331194,HEMET GLOBAL MEDICAL CENTER,Open,Parent Facility,1117 E DEVONSHIRE AVE,HEMET,92543,RIVERSIDE,General Acute Care Hospital,-116.95958,33.75113,331194
106331216,JOHN F. KENNEDY MEMORIAL HOSPITAL,Open,Parent Facility,47111 MONROE ST,INDIO,92201,RIVERSIDE,General Acute Care Hospital,-116.23391,33.70677,331216
106331226,PACIFIC GROVE HOSPITAL,Open,Parent Facility,5900 BROCKTON AVE,RIVERSIDE,92506,RIVERSIDE,Acute Psychiatric Hospital,-117.39574,33.96229,331226
106331288,PALO VERDE HOSPITAL,Open,Parent Facility,250 N 1ST ST,BLYTHE,92225,RIVERSIDE,General Acute Care Hospital,-114.5956,33.61315,331288
106331293,DOCTORS HOSPITAL OF RIVERSIDE,Open,Parent Facility,3865 JACKSON ST,RIVERSIDE,92503,RIVERSIDE,General Acute Care Hospital,-117.43996,33.92573,331293
106331312,RIVERSIDE COMMUNITY HOSPITAL,Open,Parent Facility,4445 MAGNOLIA AVE,RIVERSIDE,92501,RIVERSIDE,General Acute Care Hospital,-117.37997,33.97641,331312
106331314,RIVERSIDE UNIVERSITY HEALTH SYSTEM - D/P APH,Open,Distinct Part Facility,9990 COUNTY FARM RD,RIVERSIDE,92503,RIVERSIDE,General Acute Care Hospital,-117.45657,33.92007,331314
106331326,SAN GORGONIO MEMORIAL HOSPITAL,Open,Parent Facility,600 N HIGHLAND SPRINGS AVE,BANNING,92220,RIVERSIDE,General Acute Care Hospital,-116.9459031,33.9317494,331326
106332172,KINDRED HOSPITAL - RIVERSIDE,Open,Parent Facility,2224 MEDICAL CENTER DR,PERRIS,92571,RIVERSIDE,General Acute Care Hospital,-117.22161,33.81241,332172
106334001,SOUTHWEST HEALTHCARE SYSTEM-WILDOMAR,Open,Consolidated Facility,36485 INLAND VALLEY DR,WILDOMAR,92595,RIVERSIDE,General Acute Care Hospital,-117.23699,33.59124,334001
106334018,MENIFEE GLOBAL MEDICAL CENTER,Open,Parent Facility,28400 MCCALL BLVD,SUN CITY,92585,RIVERSIDE,General Acute Care Hospital,-117.15691,33.72146,334018
106334025,KAISER FOUNDATION HOSPITAL - RIVERSIDE,Open,Parent Facility,10800 MAGNOLIA AVE,RIVERSIDE,92505,RIVERSIDE,General Acute Care Hospital,-117.47082,33.9063,334025
106334048,KAISER FOUNDATION HOSPITAL - MORENO VALLEY,Open,Parent Facility,27300 IRIS AVE,MORENO VALLEY,92555,RIVERSIDE,General Acute Care Hospital,-117.18677,33.89553,334048
106334068,SOUTHWEST HEALTHCARE SYSTEM-MURRIETA,Open,Parent Facility,25500 MEDICAL CENTER DR,MURRIETA,92562,RIVERSIDE,General Acute Care Hospital,-117.18488,33.55788,334068
106334457,TELECARE RIVERSIDE COUNTY PSYCHIATRIC HEALTH FACILITY,Open,Parent Facility,47915 OASIS ST,INDIO,92201,RIVERSIDE,Psychiatric Health Facility,-116.22091,33.70085,334457
106334487,RIVERSIDE UNIVERSITY HEALTH SYSTEM - MEDICAL CENTER,Open,Parent Facility,26520 CACTUS AVE,MORENO VALLEY,92555,RIVERSIDE,General Acute Care Hospital,-117.19525,33.91187,334487
106334533,VIBRA REHABILITATION HOSPITAL OF RANCHO MIRAGE,Open,Parent Facility,70077 RAMON RD,RANCHO MIRAGE,92270,RIVERSIDE,General Acute Care Hospital,-116.43945,33.81487,334533
106334564,TEMECULA VALLEY HOSPITAL,Open,Parent Facility,31700 TEMECULA PKWY,TEMECULA,92592,RIVERSIDE,General Acute Care Hospital,-117.1048018,33.4795943,334564
106334589,LOMA LINDA UNIVERSITY MEDICAL CENTER-MURRIETA,Open,Parent Facility,28100 BAXTER RD,MURRIETA,92563,RIVERSIDE,General Acute Care Hospital,-117.1624483,33.6122263,334589
106334678,ENCOMPASS HEALTH REHABILITATION HOSPITAL OF MURRIETA,Open,Parent Facility,35470 WHITEWOOD RD,MURRIETA,92563,RIVERSIDE,General Acute Care Hospital,-117.1628,33.60628,334678
106340913,KAISER FOUNDATION HOSPITAL - SACRAMENTO,Open,Parent Facility,2025 MORSE AVE,SACRAMENTO,95825,SACRAMENTO,General Acute Care Hospital,-121.39232,38.60197,340913
106340947,MERCY GENERAL HOSPITAL,Open,Parent Facility,4001 J ST,SACRAMENTO,95819,SACRAMENTO,General Acute Care Hospital,-121.45271,38.56955,340947
106340950,MERCY SAN JUAN HOSPITAL,Open,Parent Facility,6501 COYLE AVE,CARMICHAEL,95608,SACRAMENTO,General Acute Care Hospital,-121.31261,38.66818,340950
106340951,METHODIST HOSPITAL OF SACRAMENTO,Open,Parent Facility,7500 HOSPITAL DR,SACRAMENTO,95823,SACRAMENTO,General Acute Care Hospital,-121.41744,38.46416,340951
106341006,UNIVERSITY OF CALIFORNIA DAVIS MEDICAL CENTER,Open,Parent Facility,2315 STOCKTON BLVD,SACRAMENTO,95817,SACRAMENTO,General Acute Care Hospital,-121.45738,38.55438,341006
106341051,"SUTTER MEDICAL CENTER, SACRAMENTO",Open,Parent Facility,2825 CAPITOL AVE,SACRAMENTO,95816,SACRAMENTO,General Acute Care Hospital,-121.47028,38.57045,341051
106342344,KAISER FOUNDATION HOSPITAL - SOUTH SACRAMENTO,Open,Parent Facility,6600 BRUCEVILLE RD,SACRAMENTO,95823,SACRAMENTO,General Acute Care Hospital,-121.42409,38.47144,342344
106342392,SIERRA VISTA HOSPITAL,Open,Parent Facility,8001 BRUCEVILLE RD,SACRAMENTO,95823,SACRAMENTO,Acute Psychiatric Hospital,-121.41764,38.46571,342392
106344011,SACRAMENTO MENTAL HEALTH TREATMENT CENTER,Open,Parent Facility,2150 STOCKTON BLVD,SACRAMENTO,95817,SACRAMENTO,Psychiatric Health Facility,-121.46059,38.5574,344011
106344017,SUTTER CENTER FOR PSYCHIATRY,Open,Parent Facility,7700 FOLSOM BLVD,SACRAMENTO,95826,SACRAMENTO,Acute Psychiatric Hospital,-121.41422,38.55065,344017
106344021,HERITAGE OAKS HOSPITAL,Open,Parent Facility,4250 AUBURN BLVD,SACRAMENTO,95841,SACRAMENTO,Acute Psychiatric Hospital,-121.36591,38.64305,344021
106344029,MERCY HOSPITAL OF FOLSOM,Open,Parent Facility,1650 CREEKSIDE DR,FOLSOM,95630,SACRAMENTO,General Acute Care Hospital,-121.1428,38.67223,344029
106344035,VIBRA HOSPITAL OF SACRAMENTO,Open,Parent Facility,330 MONTROSE DR,FOLSOM,95630,SACRAMENTO,General Acute Care Hospital,-121.1577854,38.6819654,344035
106344114,SHRINERS HOSPITALS FOR CHILDREN NORTHERN CALIF.,Open,Parent Facility,2425 STOCKTON BLVD,SACRAMENTO,95817,SACRAMENTO,General Acute Care Hospital,-121.45619,38.55286,344114
106344170,CRESTWOOD PSYCHIATRIC HEALTH FACILITY-CARMICHAEL,Open,Parent Facility,4741 ENGLE RD,CARMICHAEL,95608,SACRAMENTO,Psychiatric Health Facility,-121.354578,38.633286,344170
106344188,CRESTWOOD PSYCHIATRIC HEALTH FACILITY-SACRAMENTO,Open,Parent Facility,2600 STOCKTON BLVD,SACRAMENTO,95817,SACRAMENTO,Psychiatric Health Facility,-121.4558207,38.5519144,344188
106350784,HAZEL HAWKINS MEMORIAL HOSPITAL,Open,Parent Facility,911 SUNSET DR,HOLLISTER,95023,SAN BENITO,General Acute Care Hospital,-121.38609,36.835,350784
106361110,BEAR VALLEY COMMUNITY HOSPITAL,Open,Parent Facility,41870 GARSTIN DR,BIG BEAR LAKE,92315,SAN BERNARDINO,General Acute Care Hospital,-116.88988,34.24728,361110
106361144,CHINO VALLEY MEDICAL CENTER,Open,Parent Facility,5451 WALNUT AVE,CHINO,91710,SAN BERNARDINO,General Acute Care Hospital,-117.687,34.02626,361144
106361166,MONTCLAIR HOSPITAL MEDICAL CENTER,Open,Parent Facility,5000 SAN BERNARDINO ST,MONTCLAIR,91763,SAN BERNARDINO,General Acute Care Hospital,-117.69603,34.07774,361166
106361223,KAISER FOUNDATION HOSPITAL - FONTANA,Open,Parent Facility,9961 SIERRA AVE,FONTANA,92335,SAN BERNARDINO,General Acute Care Hospital,-117.43549,34.0725,361223
106361245,LOMA LINDA UNIV. MED. CENTER EAST CAMPUS HOSPITAL,Open,Consolidated Facility,25333 BARTON RD,LOMA LINDA,92354,SAN BERNARDINO,General Acute Care Hospital,-117.2516,34.0482,361245
106361246,LOMA LINDA UNIVERSITY MEDICAL CENTER,Open,Parent Facility,11234 ANDERSON ST,LOMA LINDA,92354,SAN BERNARDINO,General Acute Care Hospital,-117.26146,34.05164,361246
106361266,MOUNTAINS COMMUNITY HOSPITAL,Open,Parent Facility,29101 HOSPITAL RD,LAKE ARROWHEAD,92352,SAN BERNARDINO,General Acute Care Hospital,-117.16716,34.26583,361266
106361274,KINDRED HOSPITAL - ONTARIO,Open,Parent Facility,550 N MONTEREY AVE,ONTARIO,91764,SAN BERNARDINO,General Acute Care Hospital,-117.64364,34.06881,361274
106361308,REDLANDS COMMUNITY HOSPITAL,Open,Parent Facility,350 TERRACINA BLVD,REDLANDS,92373,SAN BERNARDINO,General Acute Care Hospital,-117.2044,34.03699,361308
106361318,SAN ANTONIO REGIONAL HOSPITAL,Open,Parent Facility,999 SAN BERNARDINO RD,UPLAND,91786,SAN BERNARDINO,General Acute Care Hospital,-117.63828,34.10056,361318
106361323,COMMUNITY HOSPITAL OF SAN BERNARDINO,Open,Parent Facility,1805 MEDICAL CENTER DR,SAN BERNARDINO,92411,SAN BERNARDINO,General Acute Care Hospital,-117.32245,34.13138,361323
106361339,ST. BERNARDINE MEDICAL CENTER,Open,Parent Facility,2101 N WATERMAN AVE,SAN BERNARDINO,92404,SAN BERNARDINO,General Acute Care Hospital,-117.27865,34.1341,361339
106361343,ST. MARY MEDICAL CENTER - APPLE VALLEY,Open,Parent Facility,18300 US HIGHWAY 18,APPLE VALLEY,92307,SAN BERNARDINO,General Acute Care Hospital,-117.26535,34.54053,361343
106361370,VICTOR VALLEY GLOBAL MEDICAL CENTER,Open,Parent Facility,15248 11TH ST,VICTORVILLE,92395,SAN BERNARDINO,General Acute Care Hospital,-117.2925622,34.5281768,361370
106361458,COLORADO RIVER MEDICAL CENTER,Open,Parent Facility,1401 BAILEY AVE,NEEDLES,92363,SAN BERNARDINO,General Acute Care Hospital,-114.61818,34.8325,361458
106361768,PATTON STATE HOSPITAL,Open,Parent Facility,3102 E HIGHLAND AVE,PATTON,92369,SAN BERNARDINO,Acute Psychiatric Hospital,-117.21957,34.13589,361768
106362041,HI-DESERT MEDICAL CENTER,Open,Parent Facility,6601 WHITE FEATHER RD,JOSHUA TREE,92252,SAN BERNARDINO,General Acute Care Hospital,-116.27654,34.13323,362041
106364014,LOMA LINDA UNIVERSITY BEHAVIORAL MEDICINE CENTER,Open,Parent Facility,1710 BARTON RD,REDLANDS,92373,SAN BERNARDINO,Acute Psychiatric Hospital,-117.20228,34.0468,364014
106364050,CANYON RIDGE HOSPITAL,Open,Parent Facility,5353 G ST,CHINO,91710,SAN BERNARDINO,Acute Psychiatric Hospital,-117.68789,34.00985,364050
106364121,BALLARD REHABILITATION HOSPITAL,Open,Parent Facility,1760 W 16TH ST,SAN BERNARDINO,92411,SAN BERNARDINO,General Acute Care Hospital,-117.3261,34.12843,364121
106364144,DESERT VALLEY HOSPITAL,Open,Parent Facility,16850 BEAR VALLEY RD,VICTORVILLE,92395,SAN BERNARDINO,General Acute Care Hospital,-117.29778,34.47093,364144
106364188,KINDRED HOSPITAL RANCHO,Open,Parent Facility,10841 WHITE OAK AVE,RANCHO CUCAMONGA,91730,SAN BERNARDINO,General Acute Care Hospital,-117.56601,34.10461,364188
106364231,ARROWHEAD REGIONAL MEDICAL CENTER,Open,Parent Facility,400 N. PEPPER AVENUE,COLTON,92324,SAN BERNARDINO,General Acute Care Hospital,-117.35277613,34.07163215,364231
106364265,KAISER FOUNDATION HOSPITAL - ONTARIO,Open,Consolidated Facility,2295 S VINEYARD AVE,ONTARIO,91761,SAN BERNARDINO,General Acute Care Hospital,-117.61094,34.03275,364265
106364268,LOMA LINDA UNIVERSITY SURGICAL HOSPITAL,Open,Consolidated Facility,26780 BARTON RD,REDLANDS,92373,SAN BERNARDINO,General Acute Care Hospital,-117.221174,34.0482716,364268
106364430,BARSTOW COMMUNITY HOSPITAL,Open,Parent Facility,820 E MOUNTAIN VIEW ST,BARSTOW,92311,SAN BERNARDINO,General Acute Care Hospital,-117.0168841,34.8935263,364430
106364451,TOTALLY KIDS REHABILITATION HOSPITAL,Open,Parent Facility,1720 MOUNTAIN VIEW AVE,LOMA LINDA,92354,SAN BERNARDINO,General Acute Care Hospital,-117.24371,34.06971,364451
106364502,LOMA LINDA UNIVERSITY CHILDREN'S HOSPITAL,Open,Parent Facility,11234 ANDERSON ST,LOMA LINDA,92354,SAN BERNARDINO,General Acute Care Hospital,-117.26115,34.04915,364502
106370033,"CASA PALMERA CARE CENTER, LLC",Open,Parent Facility,14750 EL CAMINO REAL,DEL MAR,92014,SAN DIEGO,Chemical Dep. Recovery Hospital,-117.22588,32.98392,370033
106370652,ALVARADO HOSPITAL MEDICAL CENTER,Open,Parent Facility,6655 ALVARADO RD,SAN DIEGO,92120,SAN DIEGO,General Acute Care Hospital,-117.0573188,32.7766415,370652
106370658,SCRIPPS MERCY HOSPITAL - CHULA VISTA,Open,Consolidated Facility,435 H ST,CHULA VISTA,91910,SAN DIEGO,General Acute Care Hospital,-117.08282,32.63289,370658
106370673,RADY CHILDREN'S HOSPITAL - SAN DIEGO,Open,Parent Facility,3020 CHILDRENS WAY,SAN DIEGO,92123,SAN DIEGO,General Acute Care Hospital,-117.15077,32.79678,370673
106370689,SHARP CORONADO HOSPITAL AND HEALTHCARE CENTER,Open,Parent Facility,250 PROSPECT PL,CORONADO,92118,SAN DIEGO,General Acute Care Hospital,-117.16808,32.69427,370689
106370694,SHARP MEMORIAL HOSPITAL,Open,Parent Facility,7901 FROST ST,SAN DIEGO,92123,SAN DIEGO,General Acute Care Hospital,-117.15531,32.80016,370694
106370695,SHARP MARY BIRCH HOSPITAL FOR WOMEN AND NEWBORNS,Open,Consolidated Facility,3003 HEALTH CENTER DR,SAN DIEGO,92123,SAN DIEGO,General Acute Care Hospital,-117.1549,32.8007,370695
106370714,GROSSMONT HOSPITAL,Open,Parent Facility,5555 GROSSMONT CENTER DR,LA MESA,91942,SAN DIEGO,General Acute Care Hospital,-117.00924,32.77963,370714
106370721,KINDRED HOSPITAL - SAN DIEGO,Open,Parent Facility,1940 EL CAJON BLVD,SAN DIEGO,92104,SAN DIEGO,General Acute Care Hospital,-117.14449,32.75542,370721
106370730,KAISER FOUNDATION HOSPITAL - SAN DIEGO - ZION,Open,Parent Facility,4647 ZION AVE,SAN DIEGO,92120,SAN DIEGO,General Acute Care Hospital,-117.09447,32.79287,370730
106370744,SCRIPPS MERCY HOSPITAL,Open,Parent Facility,4077 5TH AVE,SAN DIEGO,92103,SAN DIEGO,General Acute Care Hospital,-117.1609,32.75128,370744
106370745,SHARP MESA VISTA HOSPITAL,Open,Parent Facility,7850 VISTA HILL AVE,SAN DIEGO,92123,SAN DIEGO,Acute Psychiatric Hospital,-117.15521,32.79499,370745
106370749,ALVARADO PARKWAY INSTITUTE B.H.S.,Open,Parent Facility,7050 PARKWAY DR,LA MESA,91942,SAN DIEGO,Acute Psychiatric Hospital,-117.04449,32.77446,370749
106370755,PALOMAR HEALTH DOWNTOWN CAMPUS,Open,Parent Facility,555 E VALLEY PKWY,ESCONDIDO,92025,SAN DIEGO,General Acute Care Hospital,-117.07628,33.12586,370755
106370759,PARADISE VALLEY HOSPITAL,Open,Parent Facility,2400 E 4TH ST,NATIONAL CITY,91950,SAN DIEGO,General Acute Care Hospital,-117.0830382,32.6863293,370759
106370771,SCRIPPS MEMORIAL HOSPITAL - LA JOLLA,Open,Parent Facility,9888 GENESEE AVE,LA JOLLA,92037,SAN DIEGO,General Acute Care Hospital,-117.22279,32.88506,370771
106370775,PARADISE VALLEY HSP D/P APH BAYVIEW BEH HLTH,Open,Distinct Part Facility,330 MOSS ST,CHULA VISTA,91911,SAN DIEGO,General Acute Care Hospital,-117.0717,32.61669,370775
106370780,TRI-CITY MEDICAL CENTER,Open,Parent Facility,4002 VISTA WAY,OCEANSIDE,92056,SAN DIEGO,General Acute Care Hospital,-117.29027,33.18394,370780
106370782,UC SAN DIEGO HEALTH HILLCREST - HILLCREST MEDICAL CENTER,Open,Parent Facility,200 W ARBOR DR,SAN DIEGO,92103,SAN DIEGO,General Acute Care Hospital,-117.16498,32.75387,370782
106370875,SHARP CHULA VISTA MEDICAL CENTER,Open,Parent Facility,751 MEDICAL CENTER CT,CHULA VISTA,91911,SAN DIEGO,General Acute Care Hospital,-117.02488,32.61909,370875
106370977,POMERADO HOSPITAL,Open,Parent Facility,15615 POMERADO RD,POWAY,92064,SAN DIEGO,General Acute Care Hospital,-117.05784,32.99563,370977
106371256,SCRIPPS GREEN HOSPITAL,Open,Parent Facility,10666 N TORREY PINES RD,LA JOLLA,92037,SAN DIEGO,General Acute Care Hospital,-117.2419,32.89654,371256
106371394,SCRIPPS MEMORIAL HOSPITAL - ENCINITAS,Open,Parent Facility,354 SANTA FE DR,ENCINITAS,92024,SAN DIEGO,General Acute Care Hospital,-117.28495,33.0363,371394
106374024,AURORA SAN DIEGO,Open,Parent Facility,11878 AVE OF INDUSTRY,SAN DIEGO,92128,SAN DIEGO,Acute Psychiatric Hospital,-117.07551,32.99067,374024
106374049,SHARP MCDONALD CENTER,Open,Parent Facility,7989 LINDA VISTA RD,SAN DIEGO,92111,SAN DIEGO,Chemical Dep. Recovery Hospital,-117.15436,32.80702,374049
106374055,SAN DIEGO COUNTY PSYCHIATRIC HOSPITAL,Open,Parent Facility,3853 ROSECRANS ST,SAN DIEGO,92110,SAN DIEGO,Acute Psychiatric Hospital,-117.20257,32.75376,374055
106374063,ALVARADO HOSPITAL MEDICAL CENTER,Open,Consolidated Facility,6645 ALVARADO RD,SAN DIEGO,92120,SAN DIEGO,General Acute Care Hospital,-117.05696,32.7771,374063
106374094,VIBRA HOSPITAL OF SAN DIEGO,Open,Parent Facility,555 WASHINGTON ST,SAN DIEGO,92103,SAN DIEGO,General Acute Care Hospital,-117.16001,32.74986,374094
106374141,UCSD HEALTH LA JOLLA - JACOBS MEDICAL CENTER & SULPIZIO CARDIOVASCULAR CENTER,Open,Consolidated Facility,9300 CAMPUS POINT DR,LA JOLLA,92037,SAN DIEGO,General Acute Care Hospital,-117.22331,32.87799,374141
106374382,PALOMAR MEDICAL CENTER,Open,Consolidated Facility,2185 W CITRACADO PKWY,ESCONDIDO,92029,SAN DIEGO,General Acute Care Hospital,-117.11961,33.12158,374382
106374465,KAISER FOUNDATION HOSPITAL - SAN DIEGO - CLAIREMONT MESA,Open,Consolidated Facility,9455 CLAIREMONT MESA BLVD,SAN DIEGO,92123,SAN DIEGO,General Acute Care Hospital,-117.12581,32.83154,374465
106380031,CALIFORNIA PACIFIC MEDICAL CENTER - D/P APH,Open,Distinct Part Facility,2323 SACRAMENTO ST,SAN FRANCISCO,94115,SAN FRANCISCO,General Acute Care Hospital,-122.43155,37.79012,380031
106380842,JEWISH HOME & REHAB CENTER,Open,Parent Facility,302 SILVER AVE,SAN FRANCISCO,94112,SAN FRANCISCO,Acute Psychiatric Hospital,-122.43168,37.72884,380842
106380857,KAISER FOUNDATION HOSPITAL - SAN FRANCISCO,Open,Parent Facility,2425 GEARY BLVD,SAN FRANCISCO,94115,SAN FRANCISCO,General Acute Care Hospital,-122.44289,37.78274,380857
106380865,LAGUNA HONDA HOSPITAL AND REHABILITATION CENTER,Open,Parent Facility,375 LAGUNA HONDA BLVD,SAN FRANCISCO,94116,SAN FRANCISCO,General Acute Care Hospital,-122.45871,37.74761,380865
106380868,LANGLEY PORTER PSYCHIATRIC INSTITUTE,Open,Parent Facility,401 PARNASSUS AVE,SAN FRANCISCO,94143,SAN FRANCISCO,Acute Psychiatric Hospital,-122.45665,37.76372,380868
106380895,UCSF MEDICAL CENTER AT MOUNT ZION,Open,Consolidated Facility,1600 DIVISADERO ST,SAN FRANCISCO,94115,SAN FRANCISCO,General Acute Care Hospital,-122.43959,37.78436,380895
106380933,CALIFORNIA PACIFIC MEDICAL CENTER - DAVIES CAMPUS HOSPITAL,Open,Consolidated Facility,601 DUBOCE AVE,SAN FRANCISCO,94117,SAN FRANCISCO,General Acute Care Hospital,-122.43465,37.7691,380933
106380939,PRISCILLA CHAN & MARK ZUCKERBERG SAN FRANCISCO GENERAL HOSPITAL & TRAUMA CENTER,Open,Parent Facility,1001 POTRERO AVE,SAN FRANCISCO,94110,SAN FRANCISCO,General Acute Care Hospital,-122.40637,37.75657,380939
106380960,ST. FRANCIS MEMORIAL HOSPITAL,Open,Parent Facility,900 HYDE ST,SAN FRANCISCO,94109,SAN FRANCISCO,General Acute Care Hospital,-122.41695,37.78917,380960
106380965,"ST. MARY'S MEDICAL CENTER, SAN FRANCISCO",Open,Parent Facility,450 STANYAN ST,SAN FRANCISCO,94117,SAN FRANCISCO,General Acute Care Hospital,-122.45441,37.77408,380965
106381154,UCSF MEDICAL CENTER,Open,Parent Facility,505 PARNASSUS AVE,SAN FRANCISCO,94143,SAN FRANCISCO,General Acute Care Hospital,-122.4576564,37.7635148,381154
106382715,CHINESE HOSPITAL,Open,Parent Facility,845 JACKSON ST,SAN FRANCISCO,94133,SAN FRANCISCO,General Acute Care Hospital,-122.40926,37.79565,382715
106384176,CALIFORNIA PACIFIC MEDICAL CENTER - VAN NESS CAMPUS,Open,Parent Facility,1101 VAN NESS AVE,SAN FRANCISCO,94109,SAN FRANCISCO,General Acute Care Hospital,-122.42175,37.78584,384176
106384200,UCSF MEDICAL CENTER AT MISSION BAY,Open,Consolidated Facility,4TH ST,SAN FRANCISCO,94158,SAN FRANCISCO,General Acute Care Hospital,-122.39129,37.77189,384200
106384202,CALIFORNIA PACIFIC MEDICAL CENTER - MISSION BERNAL CAMPUS,Open,Parent Facility,3555 CESAR CHAVEZ ST,SAN FRANCISCO,94110,SAN FRANCISCO,General Acute Care Hospital,-122.42094,37.74804,384202
106384238,KENTFIELD HOSPITAL SAN FRANCISCO,Open,Consolidated Facility,450 STANYAN ST,SAN FRANCISCO,94117,SAN FRANCISCO,General Acute Care Hospital,-122.45442,37.77366,384238
106390846,DAMERON HOSPITAL,Open,Parent Facility,525 W ACACIA ST,STOCKTON,95203,SAN JOAQUIN,General Acute Care Hospital,-121.30067,37.96125,390846
106390923,ADVENTIST HEALTH LODI MEMORIAL,Open,Parent Facility,975 S FAIRMONT AVE,LODI,95240,SAN JOAQUIN,General Acute Care Hospital,-121.2859,38.12146,390923
106391010,SAN JOAQUIN GENERAL HOSPITAL,Open,Parent Facility,500 W HOSPITAL RD,FRENCH CAMP,95231,SAN JOAQUIN,General Acute Care Hospital,-121.28918,37.88594,391010
106391042,ST. JOSEPH'S MEDICAL CENTER OF STOCKTON,Open,Parent Facility,1800 N CALIFORNIA ST,STOCKTON,95204,SAN JOAQUIN,General Acute Care Hospital,-121.2891,37.97075,391042
106391056,SUTTER TRACY COMMUNITY HOSPITAL,Open,Parent Facility,1420 N TRACY BLVD,TRACY,95376,SAN JOAQUIN,General Acute Care Hospital,-121.43482,37.74366,391056
106392232,ST. JOSEPH'S BEHAVIORAL HEALTH CENTER,Open,Parent Facility,2510 N CALIFORNIA ST,STOCKTON,95204,SAN JOAQUIN,Acute Psychiatric Hospital,-121.29122,37.9763,392232
106392287,DOCTORS HOSPITAL OF MANTECA,Open,Parent Facility,1205 E NORTH ST,MANTECA,95336,SAN JOAQUIN,General Acute Care Hospital,-121.19746,37.80111,392287
106394003,SAN JOAQUIN PHF,Open,Parent Facility,1212 N CALIFORNIA ST,STOCKTON,95202,SAN JOAQUIN,Psychiatric Health Facility,-121.28784,37.96564,394003
106394009,KAISER FOUNDATION HOSPITAL - MANTECA,Open,Parent Facility,1777 W YOSEMITE AVE,MANTECA,95337,SAN JOAQUIN,General Acute Care Hospital,-121.24614,37.79736,394009
106400466,"MARIAN REGIONAL MEDICAL CENTER, ARROYO GRANDE",Open,Consolidated Facility,345 S HALCYON RD,ARROYO GRANDE,93420,SAN LUIS OBISPO,General Acute Care Hospital,-120.59147,35.11369,400466
106400480,FRENCH HOSPITAL MEDICAL CENTER,Open,Parent Facility,1911 JOHNSON AVE,SAN LUIS OBISPO,93401,SAN LUIS OBISPO,General Acute Care Hospital,-120.64977,35.27801,400480
106400524,SIERRA VISTA REGIONAL MEDICAL CENTER,Open,Parent Facility,1010 MURRAY ST,SAN LUIS OBISPO,93405,SAN LUIS OBISPO,General Acute Care Hospital,-120.666309,35.290986,400524
106400548,TENET HEALTH CENTRAL COAST TWIN CITIES COMMUNITY HOSPITAL,Open,Parent Facility,1100 LAS TABLAS RD,TEMPLETON,93465,SAN LUIS OBISPO,General Acute Care Hospital,-120.71967,35.5543,400548
106400683,DEPARTMENT OF STATE HOSPITALS - ATASCADERO,Open,Parent Facility,10333 EL CAMINO REAL,ATASCADERO,93422,SAN LUIS OBISPO,Acute Psychiatric Hospital,-120.64435,35.46102,400683
106404046,SAN LUIS OBISPO CO PSYCHIATRIC HEALTH FACILITY,Open,Parent Facility,2178 JOHNSON AVE,SAN LUIS OBISPO,93401,SAN LUIS OBISPO,Psychiatric Health Facility,-120.6465,35.27461,404046
106410782,SAN MATEO MEDICAL CENTER,Open,Parent Facility,222 W 39TH AVE,SAN MATEO,94403,SAN MATEO,General Acute Care Hospital,-122.29951,37.53017,410782
106410806,KAISER FOUNDATION HOSPITAL - SOUTH SAN FRANCISCO,Open,Parent Facility,1200 EL CAMINO REAL,SOUTH SAN FRANCISCO,94080,SAN MATEO,General Acute Care Hospital,-122.43837,37.65806,410806
106410817,SETON MEDICAL CENTER,Open,Parent Facility,1900 SULLIVAN AVE,DALY CITY,94015,SAN MATEO,General Acute Care Hospital,-122.47283,37.68172,410817
106410828,SETON COASTSIDE,Open,Consolidated Facility,600 MARINE BLVD,MOSS BEACH,94038,SAN MATEO,General Acute Care Hospital,-122.50882,37.52439,410828
106410852,MILLS-PENINSULA MEDICAL CENTER,Open,Parent Facility,1501 TROUSDALE DR,BURLINGAME,94010,SAN MATEO,General Acute Care Hospital,-122.3832465,37.5944692,410852
106410891,SEQUOIA HOSPITAL,Open,Parent Facility,170 ALAMEDA,REDWOOD CITY,94062,SAN MATEO,General Acute Care Hospital,-122.25377,37.48129,410891
106414018,MENLO PARK SURGICAL HOSPITAL,Open,Consolidated Facility,570 WILLOW RD,MENLO PARK,94025,SAN MATEO,General Acute Care Hospital,-122.16212,37.45797,414018
106414139,KAISER FOUNDATION HOSPITAL - REDWOOD CITY,Open,Parent Facility,1100 VETERANS BLVD,REDWOOD CITY,94063,SAN MATEO,General Acute Care Hospital,-122.22463,37.48967,414139
106414145,MILLS HEALTH CENTER D/P APH,Open,Distinct Part Facility,100 S SAN MATEO DR,SAN MATEO,94401,SAN MATEO,General Acute Care Hospital,-122.32562,37.56585,414145
106420483,GOLETA VALLEY COTTAGE HOSPITAL,Open,Parent Facility,351 S PATTERSON AVE,SANTA BARBARA,93111,SANTA BARBARA,General Acute Care Hospital,-119.80929,34.43336,420483
106420491,LOMPOC VALLEY MEDICAL CENTER,Open,Parent Facility,1515 E OCEAN AVE,LOMPOC,93436,SANTA BARBARA,General Acute Care Hospital,-120.4396497,34.639252,420491
106420493,MARIAN REGIONAL MEDICAL CENTER,Open,Parent Facility,1400 E CHURCH ST,SANTA MARIA,93454,SANTA BARBARA,General Acute Care Hospital,-120.41338,34.95198,420493
106420514,SANTA BARBARA COTTAGE HOSPITAL,Open,Parent Facility,400 W PUEBLO ST,SANTA BARBARA,93105,SANTA BARBARA,General Acute Care Hospital,-119.72317,34.42948,420514
106420522,SANTA YNEZ VALLEY COTTAGE HOSPITAL,Open,Parent Facility,2050 VIBORG RD,SOLVANG,93463,SANTA BARBARA,General Acute Care Hospital,-120.12721,34.60243,420522
106424002,SANTA BARBARA PSYCHIATRIC HEALTH FACILITY,Open,Parent Facility,315 CAMINO DEL REMEDIO,SANTA BARBARA,93110,SANTA BARBARA,Psychiatric Health Facility,-119.7795,34.44558,424002
106424047,COTTAGE REHABILITATION HOSPITAL,Open,Consolidated Facility,2415 DE LA VINA ST,SANTA BARBARA,93105,SANTA BARBARA,General Acute Care Hospital,-119.72248,34.43306,424047
106430035,STANFORD HEALTH CARE,Open,Consolidated Facility,500 PASTEUR DR,PALO ALTO,94304,SANTA CLARA,General Acute Care Hospital,-122.17657,37.43384,430035
106430705,REGIONAL MEDICAL OF SAN JOSE,Open,Parent Facility,225 N JACKSON AVE,SAN JOSE,95116,SANTA CLARA,General Acute Care Hospital,-121.84837,37.36332,430705
106430743,EL CAMINO HOSPITAL LOS GATOS,Open,Consolidated Facility,815 POLLARD RD,LOS GATOS,95032,SANTA CLARA,General Acute Care Hospital,-121.97057,37.26277,430743
106430763,EL CAMINO HEALTH,Open,Parent Facility,2500 GRANT RD,MOUNTAIN VIEW,94040,SANTA CLARA,General Acute Care Hospital,-122.07801,37.36779,430763
106430779,GOOD SAMARITAN HOSPITAL-SAN JOSE,Open,Parent Facility,2425 SAMARITAN DR,SAN JOSE,95124,SANTA CLARA,General Acute Care Hospital,-121.9449,37.25116,430779
106430837,O'CONNOR HOSPITAL,Open,Consolidated Facility,2105 FOREST AVE,SAN JOSE,95128,SANTA CLARA,General Acute Care Hospital,-121.93727,37.32714,430837
106430883,SANTA CLARA VALLEY MEDICAL CENTER,Open,Parent Facility,751 S BASCOM AVE,SAN JOSE,95128,SANTA CLARA,General Acute Care Hospital,-121.93202,37.31346,430883
106430905,STANFORD HEALTH CARE,Open,Parent Facility,300 PASTEUR DR,PALO ALTO,94305,SANTA CLARA,General Acute Care Hospital,-122.175881,37.433,430905
106430915,MISSION OAKS HOSPITAL,Open,Consolidated Facility,15891 LOS GATOS ALMADEN RD,LOS GATOS,95032,SANTA CLARA,General Acute Care Hospital,-121.94622,37.24364,430915
106431506,KAISER FOUNDATION HOSPITAL - SAN JOSE,Open,Parent Facility,250 HOSPITAL PKWY,SAN JOSE,95119,SANTA CLARA,General Acute Care Hospital,-121.80269,37.23924,431506
106434032,SAN JOSE BEHAVIORAL HEALTH,Open,Parent Facility,455 SILICON VALLEY BLVD,SAN JOSE,95138,SANTA CLARA,Acute Psychiatric Hospital,-121.77296,37.24741,434032
106434040,LUCILE PACKARD CHILDREN'S HOSPITAL STANFORD,Open,Parent Facility,725 WELCH RD,PALO ALTO,94304,SANTA CLARA,General Acute Care Hospital,-122.17282,37.43677,434040
106434051,CHILDREN'S HEALTHCARE ORGANIZATION OF NORTHERN CA - PEDIATRIC HOSPITAL,Open,Parent Facility,3777 S BASCOM AVE,CAMPBELL,95008,SANTA CLARA,General Acute Care Hospital,-121.94843,37.25821,434051
106434138,ST. LOUISE REGIONAL HOSPITAL,Open,Consolidated Facility,9400 N NAME UNO,GILROY,95020,SANTA CLARA,General Acute Care Hospital,-121.57411,37.03731,434138
106434153,KAISER FOUNDATION HOSPITAL - SANTA CLARA,Open,Parent Facility,700 LAWRENCE EXPY,SANTA CLARA,95051,SANTA CLARA,General Acute Care Hospital,-121.995774,37.334597,434153
106434218,KAISER PERMANENTE P.H.F - SANTA CLARA,Open,Parent Facility,3598 HOMESTEAD RD,SANTA CLARA,95051,SANTA CLARA,Psychiatric Health Facility,-121.9947844,37.3377937,434218
106434220,CRESTWOOD PSYCHIATRIC HEALTH FACILITY-SAN JOSE,Open,Parent Facility,1425 FRUITDALE AVE,SAN JOSE,95128,SANTA CLARA,Psychiatric Health Facility,-121.915081,37.3113613,434220
106440755,DOMINICAN HOSPITAL,Open,Parent Facility,1555 SOQUEL DR,SANTA CRUZ,95065,SANTA CRUZ,General Acute Care Hospital,-121.98489,36.98806,440755
106444012,SUTTER MATERNITY AND SURGERY CENTER OF SANTA CRUZ,Open,Parent Facility,2900 CHANTICLEER AVE,SANTA CRUZ,95065,SANTA CRUZ,General Acute Care Hospital,-121.977491,36.98772,444012
106444013,WATSONVILLE COMMUNITY HOSPITAL,Open,Parent Facility,75 NEILSON ST,WATSONVILLE,95076,SANTA CRUZ,General Acute Care Hospital,-121.79173,36.92839,444013
106444029,TELECARE SANTA CRUZ PHF,Open,Parent Facility,2250 SOQUEL AVE,SANTA CRUZ,95062,SANTA CRUZ,Psychiatric Health Facility,-121.9939375,36.9836479,444029
106450936,MAYERS MEMORIAL HOSPITAL,Open,Parent Facility,43563 CA-299 E,FALL RIVER MILLS,96028,SHASTA,General Acute Care Hospital,-121.42442,41.02423,450936
106450940,SHASTA REGIONAL MEDICAL CENTER,Open,Parent Facility,1100 BUTTE ST,REDDING,96001,SHASTA,General Acute Care Hospital,-122.387731,40.58562,450940
106450949,MERCY MEDICAL CENTER - REDDING,Open,Parent Facility,2175 ROSALINE AVE,REDDING,96001,SHASTA,General Acute Care Hospital,-122.39742,40.57204,450949
106451019,SHASTA COUNTY P H F,Suspense,Parent Facility,2640 BRESLAUER WAY,REDDING,96001,SHASTA,Psychiatric Health Facility,-122.38138,40.54979,451019
106454012,VIBRA HOSPITAL OF NORTHERN CALIFORNIA,Open,Parent Facility,2801 EUREKA WAY,REDDING,96001,SHASTA,General Acute Care Hospital,-122.41293,40.58563,454012
106454013,PATIENTS' HOSPITAL OF REDDING,Open,Parent Facility,2900 EUREKA WAY,REDDING,96001,SHASTA,General Acute Care Hospital,-122.41632,40.58563,454013
106454068,RESTPADD PSYCHIATRIC HEALTH FACILITY,Open,Parent Facility,2750 EUREKA WAY,REDDING,96001,SHASTA,Psychiatric Health Facility,-122.41158,40.58593,454068
106470871,MERCY MEDICAL CENTER MT. SHASTA,Open,Parent Facility,914 PINE ST,MOUNT SHASTA,96067,SISKIYOU,General Acute Care Hospital,-122.32309,41.31894,470871
106474007,FAIRCHILD MEDICAL CENTER,Open,Parent Facility,444 BRUCE ST,YREKA,96097,SISKIYOU,General Acute Care Hospital,-122.645801,41.71949,474007
106480989,KAISER FOUNDATION HOSPITAL & REHAB CENTER - VALLEJO,Open,Parent Facility,975 SERENO DR,VALLEJO,94589,SOLANO,General Acute Care Hospital,-122.24761,38.12839,480989
106481015,ADVENTIST HEALTH VALLEJO,Open,Parent Facility,525 OREGON ST,VALLEJO,94590,SOLANO,Acute Psychiatric Hospital,-122.25033,38.11825,481015
106481094,SUTTER SOLANO MEDICAL CENTER,Open,Parent Facility,300 HOSPITAL DR,VALLEJO,94589,SOLANO,General Acute Care Hospital,-122.23852,38.13109,481094
106481357,NORTHBAY MEDICAL CENTER,Open,Parent Facility,1200 B GALE WILSON BLVD,FAIRFIELD,94533,SOLANO,General Acute Care Hospital,-122.05076,38.26097,481357
106484001,NORTHBAY VACAVALLEY HOSPITAL,Open,Consolidated Facility,1000 NUT TREE RD,VACAVILLE,95687,SOLANO,General Acute Care Hospital,-121.95293,38.35509,484001
106484044,KAISER FOUNDATION HOSPITAL - VACAVILLE,Open,Parent Facility,1 QUALITY DRIVE,VACAVILLE,95688,SOLANO,General Acute Care Hospital,-121.9373177,38.3894968,484044
106484062,CRESTWOOD SOLANO PSYCHIATRIC HEALTH FACILITY,Open,Parent Facility,2201 TUOLUMNE ST,VALLEJO,94589,SOLANO,Psychiatric Health Facility,-122.2403,38.13042,484062
106490907,SANTA ROSA MEMORIAL HOSPITAL-SOTOYOME,Open,Consolidated Facility,151 SOTOYOME ST,SANTA ROSA,95405,SONOMA,General Acute Care Hospital,-122.70136,38.44204,490907
106490964,HEALDSBURG DISTRICT HOSPITAL,Open,Parent Facility,1375 UNIVERSITY ST,HEALDSBURG,95448,SONOMA,General Acute Care Hospital,-122.86385,38.62764,490964
106491001,PETALUMA VALLEY HOSPITAL,Open,Parent Facility,400 N MCDOWELL BLVD,PETALUMA,94954,SONOMA,General Acute Care Hospital,-122.63302,38.25323,491001
106491064,SANTA ROSA MEMORIAL HOSPITAL-MONTGOMERY,Open,Parent Facility,1165 MONTGOMERY DR,SANTA ROSA,95405,SONOMA,General Acute Care Hospital,-122.70149,38.4429,491064
106491076,SONOMA VALLEY HOSPITAL,Open,Parent Facility,347 ANDRIEUX ST,SONOMA,95476,SONOMA,General Acute Care Hospital,-122.46524,38.28841,491076
106491338,SONOMA SPECIALTY HOSPITAL,Open,Parent Facility,501 PETALUMA AVE,SEBASTOPOL,95472,SONOMA,General Acute Care Hospital,-122.82115,38.39825,491338
106494019,KAISER FOUNDATION HOSPITAL - SANTA ROSA,Open,Parent Facility,401 BICENTENNIAL WAY,SANTA ROSA,95403,SONOMA,General Acute Care Hospital,-122.73119,38.47087,494019
106494047,WOODLANDS PSYCHIATRIC HEALTH FACILITY,Suspense,Parent Facility,21640 POCKET RANCH RD,GEYSERVILLE,95441,SONOMA,Psychiatric Health Facility,-122.91302,38.74689,494047
106494048,"AURORA BEHAVIORAL HEALTHCARE-SANTA ROSA, LLC",Open,Parent Facility,1287 FULTON RD,SANTA ROSA,95401,SONOMA,Acute Psychiatric Hospital,-122.76973,38.43998,494048
106494106,SUTTER SANTA ROSA REGIONAL HOSPITAL,Open,Parent Facility,30 MARK WEST SPRINGS RD,SANTA ROSA,95403,SONOMA,General Acute Care Hospital,-122.7514,38.49636,494106
106500852,DOCTORS MEDICAL CENTER,Open,Parent Facility,1441 FLORIDA AVE,MODESTO,95350,STANISLAUS,General Acute Care Hospital,-120.99631,37.66439,500852
106500867,EMANUEL MEDICAL CENTER,Open,Parent Facility,825 DELBON AVE,TURLOCK,95382,STANISLAUS,General Acute Care Hospital,-120.83966,37.51052,500867
106500939,MEMORIAL MEDICAL CENTER - MODESTO,Open,Parent Facility,1700 COFFEE RD,MODESTO,95355,STANISLAUS,General Acute Care Hospital,-120.973381,37.66868,500939
106500954,CENTRAL VALLEY SPECIALTY HOSPITAL,Open,Parent Facility,730 17TH ST,MODESTO,95354,STANISLAUS,General Acute Care Hospital,-120.990601,37.64342,500954
106500967,OAK VALLEY HOSPITAL DISTRICT,Open,Parent Facility,350 S OAK AVE,OAKDALE,95361,STANISLAUS,General Acute Care Hospital,-120.86031,37.75782,500967
106501016,DOCTORS MEDICAL CENTER-BEHAVIORAL HEALTH DEPARTMENT,Open,Consolidated Facility,1501 CLAUS RD,MODESTO,95355,STANISLAUS,General Acute Care Hospital,-120.92137,37.6654,501016
106504038,STANISLAUS SURGICAL HOSPITAL,Open,Parent Facility,1421 OAKDALE RD,MODESTO,95355,STANISLAUS,General Acute Care Hospital,-120.95756,37.66395,504038
106504042,KAISER FOUNDATION HOSPITAL - MODESTO,Open,Consolidated Facility,4601 DALE RD,MODESTO,95356,STANISLAUS,General Acute Care Hospital,-121.05008,37.706477,504042
106504079,ENCOMPASS HEALTH REHABILITATION HOSPITAL OF MODESTO,Open,Parent Facility,1303 MABLE AVE,MODESTO,95355,STANISLAUS,General Acute Care Hospital,-120.97544,37.69614,504079
106504081,TELECARE STANISLAUS COUNTY PHF,Open,Parent Facility,1904 RICHLAND AVE,CERES,95307,STANISLAUS,Psychiatric Health Facility,-120.9632767,37.6002513,504081
106514001,SUTTER-YUBA PSYCHIATRIC HEALTH FACILITY,Open,Parent Facility,1965 LIVE OAK BLVD,YUBA CITY,95991,SUTTER,Psychiatric Health Facility,-121.61999,39.15537,514001
106514030,SUTTER SURGICAL HOSPITAL-NORTH VALLEY,Open,Parent Facility,455 PLUMAS BLVD,YUBA CITY,95991,SUTTER,General Acute Care Hospital,-121.61354,39.13216,514030
106514033,NORTH VALLEY BEHAVIORAL HEALTH,Open,Parent Facility,1535 PLUMAS COURT,YUBA CITY,95993,SUTTER,Psychiatric Health Facility,-121.61791088,39.15194354,514033
106521041,ST. ELIZABETH COMMUNITY HOSPITAL,Open,Parent Facility,2550 SISTER MARY COLUMBA DR,RED BLUFF,96080,TEHAMA,General Acute Care Hospital,-122.21887,40.1495,521041
106524017,RESTPADD RED BLUFF PSYCHIATRIC HEALTH FACILITY,Open,Parent Facility,925 WALNUT ST,RED BLUFF,96080,TEHAMA,Psychiatric Health Facility,-122.24266,40.17488,524017
106531059,TRINITY HOSPITAL,Open,Parent Facility,60 EASTER AVE,WEAVERVILLE,96093,TRINITY,General Acute Care Hospital,-122.94037,40.73784,531059
106540734,KAWEAH DELTA MEDICAL CENTER,Open,Parent Facility,400 W MINERAL KING AVE,VISALIA,93291,TULARE,General Acute Care Hospital,-119.29345,36.32753,540734
106540798,SIERRA VIEW MEDICAL CENTER,Open,Parent Facility,465 W PUTNAM AVE,PORTERVILLE,93257,TULARE,General Acute Care Hospital,-119.02727,36.06948,540798
106540816,ADVENTIST HEALTH TULARE,Open,Parent Facility,869 N CHERRY ST,TULARE,93274,TULARE,General Acute Care Hospital,-119.3385341,36.2210166,540816
106540827,KAWEAH DELTA SKILLED NURSING FACILITY,Open,Distinct Part Facility,1633 S COURT ST,VISALIA,93277,TULARE,General Acute Care Hospital,-119.29218,36.31614,540827
106541123,PORTERVILLE DEVELOPMENTAL CENTER,Open,Parent Facility,26501 AVE 140,PORTERVILLE,93258,TULARE,General Acute Care Hospital,-118.98044,36.04381,541123
106544009,KAWEAH DELTA MENTAL HEALTH HOSPITAL D/P APH,Open,Distinct Part Facility,1100 S AKERS ST,VISALIA,93277,TULARE,General Acute Care Hospital,-119.34946,36.3214,544009
106544075,KAWEAH DELTA REHABILITATION HOSPITAL,Open,Distinct Part Facility,840 S AKERS ST,VISALIA,93277,TULARE,General Acute Care Hospital,-119.349609,36.323792,544075
106552209,ADVENTIST HEALTH SONORA - FAIRVIEW,Open,Consolidated Facility,179 FAIRVIEW LN,SONORA,95370,TUOLUMNE,General Acute Care Hospital,-120.39093,37.97856,552209
106554011,ADVENTIST HEALTH SONORA - GREENLEY,Open,Parent Facility,1000 GREENLEY RD,SONORA,95370,TUOLUMNE,General Acute Care Hospital,-120.369,37.97568,554011
106560203,AURORA VISTA DEL MAR HOSPITAL,Open,Parent Facility,801 SENECA ST,VENTURA,93001,VENTURA,Acute Psychiatric Hospital,-119.28343,34.30657,560203
106560473,COMMUNITY MEMORIAL HOSPITAL-SAN BUENAVENTURA,Open,Parent Facility,147 N BRENT ST,VENTURA,93003,VENTURA,General Acute Care Hospital,-119.258124,34.274589,560473
106560481,VENTURA COUNTY MEDICAL CENTER,Open,Parent Facility,300 HILLMONT AVE,VENTURA,93003,VENTURA,General Acute Care Hospital,-119.25384,34.27693,560481
106560492,LOS ROBLES HOSPITAL & MEDICAL CENTER,Open,Parent Facility,215 W JANSS RD,THOUSAND OAKS,91360,VENTURA,General Acute Care Hospital,-118.882411,34.20762,560492
106560501,OJAI VALLEY COMMUNITY HOSPITAL,Open,Parent Facility,1306 MARICOPA HWY,OJAI,93023,VENTURA,General Acute Care Hospital,-119.26311,34.44221,560501
106560508,ST. JOHN'S PLEASANT VALLEY HOSPITAL,Open,Consolidated Facility,2309 ANTONIO AVE,CAMARILLO,93010,VENTURA,General Acute Care Hospital,-119.018,34.24177,560508
106560521,VENTURA COUNTY MEDICAL CENTER - SANTA PAULA HOSPITAL,Open,Consolidated Facility,825 N 10TH ST,SANTA PAULA,93060,VENTURA,General Acute Care Hospital,-119.06505,34.36548,560521
106560525,ADVENTIST HEALTH SIMI VALLEY,Open,Parent Facility,2975 SYCAMORE DR,SIMI VALLEY,93065,VENTURA,General Acute Care Hospital,-118.74394,34.28973,560525
106560529,ST. JOHN'S REGIONAL MEDICAL CENTER,Open,Parent Facility,1600 N ROSE AVE,OXNARD,93030,VENTURA,General Acute Care Hospital,-119.15819,34.21687,560529
106564018,LOS ROBLES HOSPITAL & MEDICAL CENTER - EAST CAMPUS,Open,Consolidated Facility,150 VIA MERIDA,WESTLAKE VILLAGE,91362,VENTURA,General Acute Care Hospital,-118.814629,34.15588,564018
106564121,"THOUSAND OAKS SURGICAL HOSPITAL, A CAMPUS OF LOS ROBLES HOSP & MED CTR",Open,Consolidated Facility,401 ROLLING OAKS DR,THOUSAND OAKS,91361,VENTURA,General Acute Care Hospital,-118.869041,34.17502,564121
106571086,WOODLAND MEMORIAL HOSPITAL,Open,Parent Facility,1325 COTTONWOOD ST,WOODLAND,95695,YOLO,General Acute Care Hospital,-121.7933,38.66284,571086
106574010,SUTTER DAVIS HOSPITAL,Open,Parent Facility,2000 SUTTER PL,DAVIS,95616,YOLO,General Acute Care Hospital,-121.77164,38.56289,574010
106580996,ADVENTIST HEALTH AND RIDEOUT,Open,Parent Facility,726 FOURTH ST,MARYSVILLE,95901,YUBA,General Acute Care Hospital,-121.593602,39.138805,580996
206010956,ALAMEDA HOSPITAL-SOUTH SHORE CONVALESCENT HOSPITAL,Open,Distinct Part Facility,625 WILLOW ST,ALAMEDA,94501,ALAMEDA,General Acute Care Hospital,-122.2537,37.76175,10956
206010989,PARK BRIDGE REHABILITATION AND WELLNESS CENTER,Open,Distinct Part Facility,2401 BLANDING AVE,ALAMEDA,94501,ALAMEDA,General Acute Care Hospital,-122.236731,37.77075,10989
206100718,COMMUNITY SUBACUTE AND TRANSITIONAL CARE CENTER,Open,Consolidated Facility,3003 N MARIPOSA ST,FRESNO,93703,FRESNO,General Acute Care Hospital,-119.779521,36.77814,100718
206154001,BELLA SERA,Open,Distinct Part Facility,1131 N CHINA LAKE BLVD,RIDGECREST,93555,KERN,General Acute Care Hospital,-117.670068,35.64127,154001
206190362,PROVIDENCE LITTLE COMPANY OF MARY SUBACUTE CARE CENTER,Open,Distinct Part Facility,1322 W 6TH ST,SAN PEDRO,90732,LOS ANGELES,General Acute Care Hospital,-118.306281,33.73902,190362
206190702,PROVIDENCE LITTLE COMPANY OF MARY TRANSITIONAL CARE CENTER,Open,Distinct Part Facility,4320 MARICOPA ST,TORRANCE,90503,LOS ANGELES,General Acute Care Hospital,-118.359711,33.83903,190702
206274027,WESTLAND HOUSE,Open,Consolidated Facility,100 BARNET SEGAL LN,MONTEREY,93940,MONTEREY,General Acute Care Hospital,-121.892428,36.580786,274027
206334032,HEMET VALLEY HEALTH CARE CENTER D/P SNF,Open,Distinct Part Facility,371 N WESTON PL,HEMET,92543,RIVERSIDE,General Acute Care Hospital,-116.95988,33.75253,334032
206351814,HAZEL HAWKINS MEMORIAL HOSPITAL D/P SNF,Open,Consolidated Facility,900 SUNSET DR,HOLLISTER,95023,SAN BENITO,General Acute Care Hospital,-121.3867,36.83514,351814
206374321,VILLA CORONADO (DP/SNF),Open,Distinct Part Facility,233 PROSPECT PL,CORONADO,92118,SAN DIEGO,General Acute Care Hospital,-117.16774,32.69444,374321
206374497,EDGEMOOR GERIATRIC HOSPITAL,Open,Distinct Part Facility,655 PARK CENTER DRIVE,SANTEE,92071,SAN DIEGO,Acute Psychiatric Hospital,-116.97508,32.8525382,374497
206413500,BURLINGAME HEALTH CARE CENTER D/P SNF,Open,Distinct Part Facility,1100 TROUSDALE DR,BURLINGAME,94010,SAN MATEO,General Acute Care Hospital,-122.38225,37.59555,413500
206420552,LOMPOC VALLEY MEDICAL CENTER COMPREHENSIVE CARE CENTER D/P SNF,Open,Distinct Part Facility,216 N 3RD ST,LOMPOC,93436,SANTA BARBARA,General Acute Care Hospital,-120.44507,34.64076,420552
206462284,EASTERN PLUMAS HOSPITAL-LOYALTON CAMPUS D/P SNF,Open,Distinct Part Facility,3RD ST,LOYALTON,96118,SIERRA,General Acute Care Hospital,-120.244208,39.676759,462284
206501352,OAKDALE NURSING AND REHABILITATION CENTER,Open,Distinct Part Facility,275 S OAK AVE,OAKDALE,95361,STANISLAUS,General Acute Care Hospital,-120.86073,37.75883,501352
206551035,ADVENTIST HEALTH SONORA - D/P SNF (UNIT 6 AND 7),Open,Distinct Part Facility,179 S. FAIRVIEW LANE,SONORA,95370,TUOLUMNE,General Acute Care Hospital,-120.39084,37.979607,551035
206560500,OJAI VALLEY COMMUNITY SKILLED NURSING FACILITY,Open,Distinct Part Facility,1306 MARICOPA HWY,OJAI,93023,VENTURA,General Acute Care Hospital,-119.26311,34.44221,560500
106380929,CALIFORNIA PACIFIC MEDICAL CENTER,inactive,missing data,MISSING DATA,MISSING DATA,0,SAN FRANCISCO,missing data,0.0,0.0,380929
106491267,SONOMA DEVELOPMENTAL CENTER,inactive,missing data,MISSING DATA,MISSING DATA,0,SONOMA,missing data,0.0,0.0,491267
106190468,PROMISE HOSPITAL OF EAST LOS ANGELES,inactive,missing data,MISSING DATA,MISSING DATA,0,LOS ANGELES,missing data,0.0,0.0,190468
106190854,LOS ANGELES METROPOLITAN MEDICAL CENTER,inactive,missing data,MISSING DATA,MISSING DATA,0,LOS ANGELES,missing data,0.0,0.0,190854
106100745,KINGSBURG MEDICAL HOSPITAL,inactive,missing data,MISSING DATA,MISSING DATA,0,FRESNO,missing data,0.0,0.0,100745
106361105,BARSTOW COMMUNITY HOSPITAL,inactive,missing data,MISSING DATA,MISSING DATA,0,SAN BERNARDINO,missing data,0.0,0.0,361105
106370705,FALLBROOK HOSPITAL DISTRICT,inactive,missing data,MISSING DATA,MISSING DATA,0,SAN DIEGO,missing data,0.0,0.0,370705
106160787,CENTRAL VALLEY GENERAL HOSPITAL,inactive,missing data,MISSING DATA,MISSING DATA,0,KINGS,missing data,0.0,0.0,160787
106190712,SHRINERS HOSPITAL FOR CHILDREN- LOS ANGELES,inactive,missing data,MISSING DATA,MISSING DATA,0,LOS ANGELES,missing data,0.0,0.0,190712
106551061,TUOLUMNE GENERAL MEDICAL FACILITY,inactive,missing data,MISSING DATA,MISSING DATA,0,TUOLUMNE,missing data,0.0,0.0,551061
106015000,KAISER FOUNDATION NORTHERN REGION,inactive,missing data,MISSING DATA,MISSING DATA,0,ALAMEDA,missing data,0.0,0.0,15000
106150808,TEHACHAPI HOSPITAL,inactive,missing data,MISSING DATA,MISSING DATA,0,KERN,missing data,0.0,0.0,150808
106010782,THUNDER ROAD CHEMICAL DEPENDENCY RECOVERY HOSPITAL,inactive,missing data,MISSING DATA,MISSING DATA,0,ALAMEDA,missing data,0.0,0.0,10782
106154147,CRESTWOOD PSYCHIATRIC HEALTH FACILITY,inactive,missing data,MISSING DATA,MISSING DATA,0,KERN,missing data,0.0,0.0,154147
106380964,CALIFORNIA PACIFIC MEDICAL CTN-ST. LUKE'S CAMPUS,inactive,missing data,MISSING DATA,MISSING DATA,0,SAN FRANCISCO,missing data,0.0,0.0,380964
106431013,AGNEWS STATE HOSPITAL,inactive,missing data,MISSING DATA,MISSING DATA,0,SANTA CLARA,missing data,0.0,0.0,431013
106191014,LANTERMAN STATE HOSPITAL AND DEVELOPMENTAL CENTER,inactive,missing data,MISSING DATA,MISSING DATA,0,LOS ANGELES,missing data,0.0,0.0,191014
106490919,SUTTER MEDICAL CENTER OF SANTA ROSA,inactive,missing data,MISSING DATA,MISSING DATA,0,SONOMA,missing data,0.0,0.0,490919
106230949,FRANK R HOWARD MEMORIAL HOSPITAL,inactive,missing data,MISSING DATA,MISSING DATA,0,MENDOCINO,missing data,0.0,0.0,230949
106304426,ROYALE' MISSION VIEJO - PHF,inactive,missing data,MISSING DATA,MISSING DATA,0,ORANGE,missing data,0.0,0.0,304426
106040875,FEATHER RIVER HOSPITAL,inactive,missing data,MISSING DATA,MISSING DATA,0,BUTTE,missing data,0.0,0.0,40875
106190762,ST. VINCENT MEDICAL CENTER,inactive,missing data,MISSING DATA,MISSING DATA,0,LOS ANGELES,missing data,0.0,0.0,190762
106410804,KAISER FOUNDATION HOSPITAL - REDWOOD CITY,inactive,missing data,MISSING DATA,MISSING DATA,0,SAN MATEO,missing data,0.0,0.0,410804
106010805,EDEN MEDICAL CENTER,inactive,missing data,MISSING DATA,MISSING DATA,0,ALAMEDA,missing data,0.0,0.0,10805
106484028,TELECARE SOLANO PSYCHIATRIC HEALTH FACILITY,inactive,missing data,MISSING DATA,MISSING DATA,0,SOLANO,missing data,0.0,0.0,484028
106160702,CORCORAN DISTRICT HOSPITAL,inactive,missing data,MISSING DATA,MISSING DATA,0,KINGS,missing data,0.0,0.0,160702
106190784,TEMPLE COMMUNITY HOSPITAL,inactive,missing data,MISSING DATA,MISSING DATA,0,LOS ANGELES,missing data,0.0,0.0,190784
106191300,KAISER FOUNDATION SOUTHERN REGION,inactive,missing data,MISSING DATA,MISSING DATA,0,LOS ANGELES,missing data,0.0,0.0,191300
106374084,SAN DIEGO HOSPICE & PALLIATIVE CARE CTR,inactive,missing data,MISSING DATA,MISSING DATA,0,SAN DIEGO,missing data,0.0,0.0,374084
106560838,PACIFIC SHORES HOSPITAL,inactive,missing data,MISSING DATA,MISSING DATA,0,VENTURA,missing data,0.0,0.0,560838
106301132,KAISER FOUNDATION HOSPITAL - ANAHEIM,inactive,missing data,MISSING DATA,MISSING DATA,0,ORANGE,missing data,0.0,0.0,301132
106281297,NELSON M HOLDERMAN MEMORIAL HOSPITAL,inactive,missing data,MISSING DATA,MISSING DATA,0,NAPA,missing data,0.0,0.0,281297
106301781,FAIRVIEW DEVELOPMENTAL CENTER,inactive,missing data,MISSING DATA,MISSING DATA,0,ORANGE,missing data,0.0,0.0,301781
106160725,HANFORD COMMUNITY HOSPITAL,inactive,missing data,MISSING DATA,MISSING DATA,0,KINGS,missing data,0.0,0.0,160725
106190430,KAISER FOUNDATION HOSPITAL - BELLFLOWER,inactive,missing data,MISSING DATA,MISSING DATA,0,LOS ANGELES,missing data,0.0,0.0,190430
106190307,PACIFIC ALLIANCE MEDICAL CENTER,inactive,missing data,MISSING DATA,MISSING DATA,0,LOS ANGELES,missing data,0.0,0.0,190307
106370787,PROMISE HOSPITAL OF SAN DIEGO,inactive,missing data,MISSING DATA,MISSING DATA,0,SAN DIEGO,missing data,0.0,0.0,370787
106010856,KAISER FOUNDATION HOSPITAL - OAKLAND CAMPUS,inactive,missing data,MISSING DATA,MISSING DATA,0,ALAMEDA,missing data,0.0,0.0,10856
106010858,KAISER FOUNDATION HOSPITAL - HAYWARD,inactive,missing data,MISSING DATA,MISSING DATA,0,ALAMEDA,missing data,0.0,0.0,10858
106514037,SEQUOIA PSYCHIATRIC CENTER,inactive,missing data,MISSING DATA,MISSING DATA,0,SUTTER,missing data,0.0,0.0,514037
106190455,LANCASTER COMMUNITY HOSPITAL,inactive,missing data,MISSING DATA,MISSING DATA,0,LOS ANGELES,missing data,0.0,0.0,190455
106070904,DOCTORS MEDICAL CENTER - SAN PABLO,inactive,missing data,MISSING DATA,MISSING DATA,0,CONTRA COSTA,missing data,0.0,0.0,70904
